NameID	ContinentName	CountryName	UpperName	LowerName	Locality	ElevationDisplay	Coordinate Display	LatitudeDecimal	LongitudeDecimal	Description
27909983	South America	Ecuador	Azuay		Parque Nacional Cajas. Páramo de Soldados. Road Cuenca-San Joaquín-Soldados.  Above Soldados, off road within the Park, km 51.7. Burnt and regenerated páramo.	3680 - 3870 m	"02°53'01""S 079°18'31""W - 02°53'34""S 079°18'36""W"	-2,88361	-79,30861	Shrub 0.3 m. Flowers white flushed with purple outside.
27904079	South America	Ecuador	Azuay		Laguna Toreadora, Las Cajas. Semihumid paramo dominated by grass tussocks and cushion plants, mainly of the families Asteraceae, Apiaceae and Valerianaceae. Scattered shrubs and Puyas. Soil temp.: 8° C.	3900 m	02°43'S 079°12'W	-2,71666	-79,2	Forming small mats. Flowers white to pink.
27904079	South America	Ecuador	Azuay		Cuenca, about 25 km on the road to Cajas. Paramo.	3500 m	02°48'S 079°08'W	-2,8	-79,13333	Herb, cushionplant. Petals white. Center of flower light violet.
27904079	South America	Ecuador	Azuay	Cuenca	Area Nacional de Recreación Cajas. Laguna Toreadora. Mostly paramo with remnant Montane Wet Forest.	3800 m	02°48'S 079°08'W	-2,8	-79,13333	Cushion-forming herb.
27904079	South America	Ecuador	Azuay	Cuenca	Area Nacional de Recreación Cajas. Collections made between La Laguna Llaviucu via dirt road to main highway to Cuenca. Mostly Paramo with remnant patches of Montane Wet Forest.	3100 - 3200 m	02°53'S 079°08'W	-2,88333	-79,13333	Low terrestrial herb, cushion-forming. Corolla salverform with white-blue lobes.
27904079	South America	Ecuador	Azuay	Cuenca	Area Nacional de Recreación Cajas. Laguna Toreadora and Virgen Machay. Mostly Paramo with remnant Montane Wet Forest.	4000 - 4400 m	02°46'S 079°13'W	-2,76666	-79,21666	"Terrestrial creeping herb. Corolla tubular with four lobes; inside of corolla white, outside light blue."
27904079	South America	Ecuador	Azuay	Cuenca	Parque Nacional El Cajas.  Laguna Toreador.	3500 m	02°53'S 079°08'W	-2,88333	-79,13333	Cushion-forming herb. Perianth salverform and white.
27904079	South America	Ecuador	Azuay		Parque Nacional Cajas. Road Cuenca-Sayausí-Molleturo. At the pass, km 38.4. Grass páramo vegetation.	4110 - 4230 m	"02°46'38""S 079°14'27""W"	-2,77722	-79,24083	Cushion-forming herb. Corolla white tinged with violet on the outside.
27904079	South America	Ecuador	Azuay	Cuenca	Parque Nacional Cajas, km 32.1 desde redondel Cuenca-Molleturo. Sendero este alrededor de Laguna Toreadora. Páramo de pajonal.	3850 - 3870 m	"02°46'56""S 079°13'24""W - 02°46'46""S 079°13'18""W"	-2,7822223	-79,2233334	Planta en almohadilla. Flores blancas, anteras café-oscuras.
27904079	South America	Ecuador	Azuay		"Parque Nacional Cajas; near Laguna Toreadora"	3850 m	"02°46'57""S 079°13'28""W"	-2,7825	-79,22444	Mat-forming distylous, white to violet
27904079	South America	Ecuador	Azuay		"Parque National Cajas; near Laguna Toreadora"	3850 m	"02°46'57""S 079°13'28""W"	-2,7825	-79,22444	Mat-forming, flowers white to violet, distylous
27904079	South America	Ecuador	Azuay		Parque Nacional Cajas, Laguna Toreadora.	3950 m	"02°46'59""S 079°13'26""W"	-2,783	-79,2239167	Hierba en cojín, diminuta, corola blanca.
27909983	South America	Ecuador	Azuay		Parque Nacional Cajas. Road Cuena-Sayausí-Molleturo, km 28.9. Around Laguna Patoquinoa, páramo vegetation with scattered Polylepis trees.	3700 - 3870 m	"02°46'56""S 079°12'14""W - 02°47'11""S 079°12'26""W"	-2,78222	-79,20388	Shrub 0.5 m. Flower buds dark pink-purple. Corolla white inside, tinged with purple outside.
27909983	South America	Ecuador	Azuay	Cuenca	Parque Nacional Cajas, km 28 redondel Cuenca-Molleturo. Sendero Laguna Patoquinoas, páramo de pajonal y bosque de Polylepis.	3730 m	"02°47'09""S 079°12'18""W"	-2,7858333	-79,205	Arbusto 1 m, flores blancas con tintes morados.
27909983	South America	Ecuador	Azuay		Parque Nacional Cajas, sendero a Lagunas Unidas.	3805 m	"02°47'06""S 079°12'20""W"	-2,7849444	-79,2055	Arbusto, flores blancas.
1700589	South America	Ecuador	Azuay		Parque Nacional Cajas. Road Cuena-Sayausí-Molleturo, km 28.9. Around Laguna Patoquinoa, páramo vegetation with scattered Polylepis trees.	3700 - 3870 m	"02°46'56""S 079°12'14""W - 02°47'11""S 079°12'26""W"	-2,7822223	-79,2038889	Herb, terrestrial to 0.5 m. Flowers yellowish white.
1700589	South America	Ecuador	Azuay		Road Chiquintad-Labrado. North side ending at the dam Presa Chanlud, km 26.9. Distured upper Andean forest and grass páramo.	3340 - 3520 m	"02°41'54""S 079°01'48""W - 02°40'57""S 079°02'03""W"	-2,69833	-79,03	Herb, 1 m. Flowers yellow. Fruits light green. Peduncles maroon.
1700589	South America	Ecuador	Azuay	Cuenca	Parque Nacional Cajas, km 28 redondel Cuenca-Molleturo. Sendero Laguna Patoquinoas, páramo de pajonal y bosque de Polylepis.	3730 m	"02°47'09""S 079°12'18""W"	-2,7858333	-79,205	Hierba 0.9 m, pétalos blanco-verdosos.
1700589	South America	Ecuador	Azuay		Parque Nacional Cajas, Laguna de Llaviuco.	3170 m	"02°50'38""S 079°08'37""W"	-2,8439722	-79,1437194	
1703586	South America	Ecuador	Azuay		Laguna Toreadora, Las Cajas. Semihumid paramo dominated by grass tussocks and cushion plants, mainly of the families Asteraceae, Apiaceae and Valerianaceae. Scattered shrubs and Puyas. Soil temp.: 8° C.	3900 m	02°43'S 079°12'W	-2,71666	-79,2	Horizontal rootstock giving rise to cushions. Flowers white.
1703586	South America	Ecuador	Azuay		Parque Nacional Cajas. Road Cuenca-Sayausí-Molleturo, beyond the pass. Km 47.8. Páramo vegetation.	3720 m	"02°47'56""S 079°18'17""W"	-2,7988889	-79,3047222	Herb cushion-forming. Buds light green. Flowers white.
1703586	South America	Ecuador	Azuay	Cuenca	Parque Nacional Cajas, km 32.1 desde redondel Cuenca-Molleturo. Bosque de Polylepis abajo de la casa de información, Laguna La Toreadora.	3880 m	"02°46'56""S 079°13'26""W"	-2,7822223	-79,2238889	Hierba formando almohadillas, flores amarillo-verdosas.
2722892	South America	Ecuador	Azuay		Parque Nacional de Cajas, WNW of Cuenca. Humid depression in grass paramo.	3950 m	02°51'S 079°12'W	-2,85	-79,2	Flowers light yellow.
2722892	South America	Ecuador	Azuay		Laguna Toreadora, Las Cajas. Semihumid paramo dominated by grass tussocks and cushion plants, mainly of the families Asteraceae, Apiaceae and Valerianaceae. Scattered shrubs and Puyas. Soil temp.: 8° C.	3900 m	02°43'S 079°12'W	-2,71666	-79,2	Long creeping shoots. Flowers white.
2722892	South America	Ecuador	Azuay	Cuenca	Area Nacional de Recreación Cajas. Laguna Toreadora. Mostly paramo with remnant Montane Wet Forest.	3800 m	02°48'S 079°08'W	-2,8	-79,13333	Mat-forming herb. Flowers white.
2722892	South America	Ecuador	Azuay	Cuenca	Parque Nacional Cajas, km 32.1 desde redondel Cuenca-Molleturo. Sendero este alrededor de Laguna Toreadora. Páramo de pajonal.	3850 - 3870 m	"02°46'56""S 079°13'24""W - 02°46'46""S 079°13'18""W"	-2,7822223	-79,2233334	Hierba reptante, brácteas verdes con puntas moradas, flores blanco sucio, estigmas café-lilas.
2722899	South America	Ecuador	Azuay	Cuenca	Parque Nacional Cajas, km 28 redondel Cuenca-Molleturo. Sendero Laguna Patoquinoas, páramo de pajonal y bosque de Polylepis.	3730 m	"02°47'09""S 079°12'18""W"	-2,7858333	-79,205	Hierba con tallos alados, brácteas con tintes morados, flósculos blancos.
29200505	South America	Ecuador	Azuay		Around Laguna Toreadora in Parque Nacional de Cajas, c. 35 km WNW of Cuenca. Polylepis forest and grass paramo.	3950 m	02°46'S 079°13'W	-2,76666	-79,21666	Erect herb. Calyx purple. Corolla light green.
29200505	South America	Ecuador	Azuay		Laguna Toreadora, Las Cajas. Semihumid paramo dominated by grass tussocks and cushion plants, mainly of the families Asteraceae, Apiaceae and Valerianaceae. Scattered shrubs and Puyas. Soil temp.: 8° C.	3900 m	02°43'S 079°12'W	-2,71666	-79,2	Flowers light yellow.
29200505	South America	Ecuador	Azuay	Cuenca	Area Nacional de Recreación Cajas. Laguna Toreadora. Mostly Paramo with remnant Montane Wet Forest.	3800 m	02°46'S 079°13'W	-2,76666	-79,21666	Herb, 15 cm tall. Flowers yellow and purple.
29200505	South America	Ecuador	Azuay	Cuenca	Parque Nacional Cajas, km 28 redondel Cuenca-Molleturo. Sendero izquierdo Laguna Patoquinoas, páramo de pajonal y bosque de Polylepis.	3730 - 3800 m	"02°47'09""S 079°12'18""W - 02°46'58""S 079°12'43""W"	-2,7858333	-79,205	Hierba 0.6 m, brácteas con márgenes morados, flores amarillo-verdosas. Toda la planta con tricomas morados pegajosos.
29200505	South America	Ecuador	Azuay	Cuenca	Parque Nacional Cajas, km 30.3 Cuenca-Molleturo, sendero a Lagunas Burines, páramo de pajonal.	3900 - 3940 m	"02°47'22""S 079°12'55""W - 02°47'51""S 079°13'06""W"	-2,7894444	-79,2152778	"Hierba 0.5 m, tallos morados; hojas, brácteas y cáliz verdes con tintes morados. Corola amarillo con verde limón."
29200505	South America	Ecuador	Azuay	Cuenca	Parque Nacional Cajas km 32.1 Cuenca-Molleturo, Laguna Toreadora, sendero alrededor de la laguna.	3850 m	"02°46'46""S 079°13'18""W - 02°46'56""S 079°13'24""W"	-2,7794445	-79,2216667	Hierba sobre rocas, hasta 40 cm, hojas moradas con puntas verdes, densamente pubescentes, corola blanca en la base, rosado-morado en el ápice.
29200512	South America	Ecuador	Azuay	Cuenca	Area Nacional de Recreación Cajas. Collections made between La Laguna Llaviucu via dirt road to main highway from Cuenca. Mostly Paramo with remnant patches of Montane Wet Forest.	3100 - 3200 m	02°53'S 079°08'W	-2,88333	-79,13333	Terrestrial herb. Corolla and calyx purple.
29200512	South America	Ecuador	Azuay		Parque Nacional Cajas. Páramo de Soldados. Road Cuenca-San Joaquín-Soldados.  Above Soldados, off road within the Park, km 51.7. Burnt and regenerated páramo.	3680 - 3870 m	"02°53'01""S 079°18'31""W - 02°53'34""S 079°18'36""W"	-2,8836111	-79,3086111	Herb. Stems purple, leaves turning purple-maroon towards the apex. Flowers light violet.
29200512	South America	Ecuador	Azuay		Parque Nacional Cajas. Páramo de Soldados. Road Baños-Soldados-Chaucha, km 34.4. Burnt and grazed grass páramo and cushion plants on wet areas along creek.	3700 m	"02°54'06""S 079°15'40""W"	-2,90166	-79,26111	Herb. Stem, leaves, and bracts flushed with maroon. Flowers light purple at apex, white at base.
29200512	South America	Ecuador	Azuay		Parque Nacional Cajas, Road Cuenca-Sayausí-Molleturo km 29. 5 x 5 m plot. Grass páramo, burned and regenerated. Specimens preserved in 70% alcohol before drying.	3800 m	"02°47'28""S 079°12'06""W"	-2,7911111	-79,2016667	Herb tinted with violet-brown, flowers violet.
29200512	South America	Ecuador	Azuay	Cuenca	Parque Nacional Cajas, km 28 redondel Cuenca-Molleturo. Sendero Laguna Patoquinoas, páramo de pajonal y bosque de Polylepis.	3730 m	"02°47'09""S 079°12'18""W"	-2,7858333	-79,205	Hierba 15 cm, con tonos morados, flores lilas.
29200512	South America	Ecuador	Azuay	Cuenca	"Parque Nacional Cajas, km 35.7 redondel Cuenca-Molleturo, en el paso, sendero Paragüillas; Páramo de pajonal hacia peñasco rocoso."	4100 - 4180 m	"02°46'39""S 079°14'30""W - 02°46'10""S 079°14'41""W"	-2,7775	-79,2416666	Hierba 12 cm, con tintes morados. Flores con labio blanco, el resto lila.
29200512	South America	Ecuador	Azuay		Parque Nacional de Cajas, east of pass. Polylepis incana and P. weberbauerii forest, with Berberis, Monnina, and Gynoxis. Polylepis trunks with mosses and lichens.	3780 m	02°42'S 079°16'W	-2,7	-79,26666	Herb. Upper leaves dusty blue. Corolla blue.
29200512	South America	Ecuador	Azuay		Parque Nacional Cajas, Laguna Toreadora.	3950 m	"02°46'59""S 079°13'26""W"	-2,783	-79,2239167	Hierba 10 cm.
3500102	South America	Ecuador	Azuay		Parque Nacional Cajas. Road Cuenca-Sayausí-Molleturo, km 17.4.	3195 - 3330 m	"02°49'14""S 079°08'49""W"	-2,82055	-79,14694	Shrub 1 m. Fruits black. Silica gel sample.
3500102	South America	Ecuador	Azuay	Cuenca	Parque Nacional Cajas, km 28 redondel Cuenca-Molleturo. Sendero Laguna Patoquinoas, páramo de pajonal y bosque de Polylepis.	3730 m	"02°47'09""S 079°12'18""W"	-2,7858333	-79,205	Arbusto 3 m, flores amarillas, frutos jóvenes verdes con rojizo.
3500102	South America	Ecuador	Azuay		Carretera Cuenca-Sayausi, Area de recreación Cajas, Guabidula	3400 - 3500 m				
3500102	South America	Ecuador	Azuay		Cuenca - Molleturo road ca 5 km W of pass in Las Cajas. Polylepis forest.	3700 m	02°49'S 079°16'W	-2,81666	-79,26666	In grassed area, somewhat bitten by cattle
3500102	South America	Ecuador	Azuay		Parque Nacional de Cajas, east of pass. Polylepis incana and P. weberbauerii forest, with Berberis, Monnina, and Gynoxis. Polylepis trunks with mosses and lichens.	3780 m	02°42'S 079°16'W	-2,7	-79,26666	Shrub 2.5 m high. Tepals orange.
3500102	South America	Ecuador			"Area Nacional Recrecional Cajas; Sector Llaviuco."	3450 - 3550 m	02°50'S 079°20'W	-2,8333333	-79,3333333	Arbusto.
3500102	South America	Ecuador	Azuay		Carretera Cuenca-Sayausi-Area de Receración Cajas, Guabdula a 18 km de Cuenca.	3400 - 3500 m				Arbusto de 1 m flores amarillas.
3500102	South America	Ecuador	Azuay		Area Nacional de Recreación Cajas, colecciones desde el Paso hasta Migüir	4100 - 3500 m				
3500102	South America	Ecuador	Azuay		Carretera San Joaquín-Soldados	2900 m				
3500102	South America	Ecuador	Azuay		Carretera Cuenca-Sayausid-Area de Recreación Cajas	3050 m				
3500102	South America	Ecuador			Páramo de Cajas	3650 m				
3500102	South America	Ecuador	Azuay		Carretero Cuenca - Sallausí. Colecciones al borde del carretero.  Area de Recreación Cajas, Parque Nacional Cajas.	3400 m				"Arbusto de 2m; corola amarillenta."
1200216	South America	Ecuador	Azuay		Around Laguna Toreadora in Parque Nacional de Cajas, c. 35 km WNW of Cuenca. Polylepis forest and grass paramo.	3950 m	02°46'S 079°13'W	-2,76666	-79,21666	Erect, 40-60 cm tall. Sepals externally deep red, internally light yellow. Petals with light yellow nail and green claw, externally with red midrib distally, internally spotted dark purple.
1200216	South America	Ecuador	Azuay	Cuenca	Parque Nacional Cajas, km 30.3 Cuenca-Molleturo, sendero a Lagunas Burines, páramo de pajonal.	3900 - 3940 m	"02°47'22""S 079°12'55""W - 02°47'51""S 079°13'06""W"	-2,7894444	-79,2152778	Hierba 0.7 m. Parte apical nutante. Flores colgantes. Hojas blanco pubescentes en la haz. Cáliz rojo-coral, tan largo con la corola. Pétalos amarillos con puntos morados por dentro, anteras verde-grises.
1200216	South America	Ecuador	Azuay		Parque Nacional Cajas, Laguna Toreadora.	3950 m	"02°46'59""S 079°13'26""W"	-2,783	-79,2239167	Hierba, envés blanquecino, corola rosado oscuro por fuera, anaranjado por dintro.
20300412	South America	Ecuador	Azuay		Carretera Cuenca-Sayausí-Parque Recreacional Cajas-El paso- Mig ir- Naranjal. Colecciones entre Mig ir y El Paso.	3500 m	02°42'S 079°16'W	-2,7	-79,26666	
20300412	South America	Ecuador	Azuay		Carretera Sayausi-Quinoas-Area Recreacional Cajas. Colecciones en vegetacion de borde de carretera.	2720 - 3200 m	02°42'S 079°16'W	-2,7	-79,2666667	Arbusto de 1 m, caliz verde, corola roja.
20300412	South America	Ecuador	Azuay		Páramo de Las Cajas, W slope, c 1 km above Mihuir	2700 - 2900 m	02°42'S 079°16'W	-2,7	-79,26666	
20300412	South America	Ecuador	Azuay		Around Laguna Toreadora in Parque Nacional de Cajas, c. 35 km WNW of Cuenca. Polylepis forest and grass paramo.	3950 m	02°46'S 079°13'W	-2,76666	-79,21666	Shrub, ca 1 m tall. Calyx red. Corolla blackish violet.
20300412	South America	Ecuador	Azuay		From Soldados eastwards along the road until Hda. San Vicente (west of Cuenca). Patches of Polylepis-forest and hedges along road.	3200 - 3300 m	02°56'S 079°10'W	-2,93333	-79,16666	1 m high shrub.
20300412	South America	Ecuador	Azuay	Cuenca	Area Nacional de Recreación Cajas. Laguna Toreadora. Mostly paramo with remnant Montane Wet Forest.	3800 m	02°48'S 079°08'W	-2,8	-79,13333	Shrub, 1 m tall. Flowers red and purple.
20300412	South America	Ecuador	Azuay	Cuenca	Totorococha-Mazan valley, Area Nacional de Recreacion Cajas	3400 m	02°53'S 079°10'W	-2,88333	-79,16666	
20300412	South America	Ecuador	Azuay		Parque Nacional Cajas. Road Cuenca-Sayausí-Molleturo, beyond the pass. Km 47.8. Páramo vegetation.	3720 m	"02°47'56""S 079°18'17""W"	-2,79888	-79,30472	Shrub 1 m. Calyx dark red with white hairs. Corolla dark purple.
20300412	South America	Ecuador	Azuay		Parque Nacional Cajas. Páramo de Soldados. Road Cuenca-San Joaquín-Soldados.  Above Soldados, off road within the Park, km 51.7. Burnt and regenerated páramo.	3680 - 3870 m	"02°53'01""S 079°18'31""W - 02°53'34""S 079°18'36""W"	-2,8836111	-79,3086111	Shrub 0.5 m. Calyx dark red, sericeous. Corolla purple-black. Bracts dark red.
20300412	South America	Ecuador	Azuay		Road Chiquintad-Labrado. North side ending at the dam Presa Chanlud, km 26.9. Distured upper Andean forest and grass páramo.	3340 - 3520 m	"02°41'54""S 079°01'48""W - 02°40'57""S 079°02'03""W"	-2,6983333	-79,03	Shrub 1 m. Calyx dark red, strigose. Corolla purple-black, style dark red. Bracts dark red with green tip, strigose.
20300412	South America	Ecuador	Azuay	Cuenca	Parque Nacional Cajas, km 28 redondel Cuenca-Molleturo. Sendero Laguna Patoquinoas, páramo de pajonal y bosque de Polylepis.	3730 m	"02°47'09""S 079°12'18""W"	-2,7858333	-79,205	Arbusto 0.7 m, cáliz rojo-rosado, corola morado oscura.
20300412	South America	Ecuador	Azuay		Area de Receación Las Cajas, 6 km W of pass on Cuenca-Molleturo road. Polylepis forest with P. incana, P. sericea and Escallonia myrtilloides.	3800 m	02°40'S 079°23'W	-2,6666667	-79,3833333	Shrub, to 2 m. Calyx red, corolla very dark purple, almost black.
20300412	South America	Ecuador	Azuay		"Area Nacional Recreacional Cajas; Sector Llaviuco"	3450-3550 m	02°50'S 079°20'W	-2,83333	-79,33333	
20300412	South America	Ecuador	Azuay		Páramo de Cajas, Chuspipuñuna, matorral de Gynoxys	3440 m	"02°48'09""S 079°13'06""W"	-2,8025	-79,21833	arbusto 1.5 m, pétalos negros
20300412	South America	Ecuador	Azuay		Carretero Cuenca-Molleturo, Virgen del Cajas. Transecto desde la Virgen en dirección oeste.	3642 m	02°47'S 079°11'W	-2,78333	-79,18333	Arbusto 0.80 m, brácteas y cáliz rojo-rosado, pubescencia blanca, corola morado oscura.
20300412	South America	Ecuador	Azuay		Carretero Chiquintad-represa El Labrado, restos de bosque andino y páramo arbustivo, celda 12 (ID 4360).	3370 m	"02°44'39""S 079°01'29""W"	-2,74416	-79,02472	Arbusto 0.7 m, flores solitarias o ternadas, brácteas 3 pares (el exterior hojas reducidas), rosado-rojas, pubescentes, flores 4 ó 5 meras, cáliz rojo-rosado, corola morada, estilo rosado-rojo glabro, lóbulos apicales del ovario rojo rosados.
20300412	South America	Ecuador	Azuay		Carretero Chiquintad-Represa El Labrado, restos de bosque andino y páramo arbustivo, celda 14 (ID 4053) y Celda 16 (ID 3898).	3370 - 3390 m	"02°43'38""S 079°02'47""W - 02°44'05""S 079°02'15""W"	-2,72722	-79,04638	Arbusto 0.7 m, flores solitarias o tunadas, brácteas 3 pares (el exterior hojas reducidas), rosado-rojas, pubescentes, flores 4 ó 5 meras, cáliz rojo-rosado, corola morada, estilo rosado-rojo glabro, lóbulos apicales del ovario rojo rosados.
20300412	South America	Ecuador	Azuay		Carretero Chiquintad-Represa El Labrado, restos de bosque andino y páramo arbustivo, celda 14 (ID 4053) y Celda 16 (ID 3898).	3370 - 3390 m	"02°43'38""S 079°02'47""W - 02°44'05""S 079°02'15""W"	-2,72722	-79,04638	Arbusto 0.7 m, flores solitarias o ternadas, brácteas 3 pares (el exterior hojas reducidas), rosado-rojas, pubescentes, flores 4 ó 5 meras, cáliz rojo-rosado, corola morada, estilo rosado-rojo glabro, lóbulos apicales del ovario rojo rosados.
20300412	South America	Ecuador	Azuay		Carretero Chiquintad - Represa El Labrado, restos de bosque andino, plantaciones de pino y pastizales, celda 7 (ID 4515).	3020 m	"02°45'08""S 079°00'41""W"	-2,75222	-79,01138	Arbusto 0.7 m, flores solitarias o ternadas, brácteas 3 pares (el exterior hojas reducidas), rosado-rojas, pubescentes, flores 4 ó 5 meras, cáliz rojo-rosado, corola morada, estilo rosado-rojo glabro, lóbulos apicales del ovario rojo rosados.
20300412	South America	Ecuador	Azuay		Toreador betwenn Molletutro and Quinoa	3810 - 3930 m	02°47'S 079°17'W	-2,7833333	-79,2833333	
20300412	South America	Ecuador	Azuay		Chiquintad-Represa El Labrado.	2790 - 3425 m	"02°48'12""S 079°00'28""W - 02°43'44""S 079°04'25""W"	-2,8033889	-79,0078333	Arbusto 2 m, caliz rojo rosado, pétalos morados.
20300412	South America	Ecuador	Azuay		Parque Nacional Cajas, zona Llaviuco-Surocucho.	3106 m	"02°50'41""S 079°08'33""W"	-2,8446944	-79,1423889	Arbusto 2 m, cáliz rojo-rosado, pétalos morados.
20300412	South America	Ecuador	Azuay		Parque Nacional Cajas, Laguna La Toreadora.	3905 m	"02°46'59""S 079°13'29""W"	-2,7830556	-79,2247223	Arbusto 1 m, hipanto y brácteas rojo rosado, corola morada.
20300412	South America	Ecuador	Azuay		Parque Nacional Cajas, Laguna Toreadora.	3950 m	"02°46'59""S 079°13'26""W"	-2,783	-79,2239167	Corola morada, hipanto rojo-rosado.
25512876	South America	Ecuador	Azuay		Páramo de las Cajas W of Cuenca.	4000 - 4150 m	02°47'S 079°14'W	-2,78333	-79,23333	Dense tussocks. Leaves very brittle.
25512876	South America	Ecuador	Azuay		3-5 km W of pass at Las Cajas, W of Cuenca.	3800 - 4000 m	02°40'S 079°14'W	-2,66666	-79,23333	The only grass of significance under Polylepis forest.
25512876	South America	Ecuador	Azuay		Páramo de Soldados SW of Cuenca.	3700 - 3800 m	02°53'S 079°17'W	-2,88333	-79,28333	In swamp.
25512876	South America	Ecuador	Azuay		Páramo de las Cajas W of Cuenca.	4000 - 4150 m	02°47'S 079°14'W	-2,78333	-79,23333	
25512876	South America	Ecuador	Azuay		Paramo de Soldados.	3700 - 4000 m	02°53'S 079°18'W	-2,88333	-79,3	In pajonal, leaves longer then culms.
25512876	South America	Ecuador	Azuay		Paramo de Soldados.	3700 - 4000 m	02°53'S 079°18'W	-2,88333	-79,3	
25512876	South America	Ecuador	Azuay		Paramo de Soldados.	3700 - 4000 m	02°53'S 079°18'W	-2,88333	-79,3	
25512876	South America	Ecuador	Azuay		Totorococha-Masan valley, Area Nacional de Recreación Cajas	3900 m	02°53'S 079°10'W	-2,88333	-79,16666	
25512876	South America	Ecuador	Azuay	Cuenca	"Parque Nacional Cajas, km 35.7 redondel Cuenca-Molleturo, en el paso, sendero Paragüillas; Páramo de pajonal hacia peñasco rocoso."	4100 - 4180 m	"02°46'39""S 079°14'30""W - 02°46'10""S 079°14'41""W"	-2,7775	-79,2416666	Hierba dominante del páramo de pajonal, ca. 0.6 m, espiguillas moradas.
25512876	South America	Ecuador	Azuay	Cuenca	Parque Nacional Cajas, km 35 Cuenca-Molleturo, Centro de Información, Laguna Toreadora sendero oeste.	3880 - 3890 m	"02°46'56""S 079°13'26""W - 02°46'43""S 079°13'33""W"	-2,7822223	-79,2238889	Hierba grande, espigas pajizas, ejes morados.
25512876	South America	Ecuador	Azuay		Páramo de Cajas, app. 30 km. WNW. of Cuenca. Very wet bunchgrass páramo and shrub páramo. Noumerous patches of Polylepis forest	4000-4200 m	02°45'S 079°14'W	-2,75	-79,23333	
25512876	South America	Ecuador	Azuay		Par. de Soldados, along small side-road ca 19 km above Soldados.	3700 m	02°53'S 079°18'W	-2,8833333	-79,3	Moist paramo.
25512876	South America	Ecuador	Azuay		Par. de Soldados, along small side-road ca 19 km above Soldados.	3700 m	02°53'S 079°18'W	-2,88333	-79,3	Small tussocks in swamp
25512876	South America	Ecuador	Azuay		Cajas National Park, E flanks of Cerro Amarillo (4451 m a.s.l.), transition from the grass p·ramo of Calamagrostis intermedia and lower superp·ramo formed by shrubs of Loricaria spp. and cushions of Azorella aretioides, and Werneria humilis.	4300 m	01°27'S 078°27'W	-1,45	-78,45	
25512876	South America	Ecuador	Azuay		Cajas National Park, E flanks of Cerro Amarillo (4451 m a.s.l.), transition from the grass p·ramo of Calamagrostis intermedia and lower superp·ramo formed by shrubs of Loricaria spp. and cushions of Azorella aretioides, and Werneria humilis.	4240-4300 m	01°45'S 078°27'W	-1,75	-78,45	
25512876	South America	Ecuador	Azuay		Páramo de Las Cajas, E slope.	3800 m	"02°11'10""S 079°16'00""W"	-2,186	-79,2667	
25512876	South America	Ecuador	Azuay		Páramo de Las Cajas, E slope.	3800 m	"02°11'10""S 079°16'00""W"	-2,186	-79,2667	Tufted.
26200245	South America	Ecuador	Azuay		Parque Nacional Cajas. Road Cuenca-Sayausí-Molleturo, km 38.4. From the pass to the top of ridge north of pass. Páramo vegetation.	4110 - 4350 m	"02°46'38""S 079°14'09""W - 02°46'09""S 079°14'39""W"	-2,77722	-79,23583	Herb in rosette. Base of leaves pink. Bracts pink at base, green at apex. Flowers white with a light flush of lilac. Fruits pink at base, yellowish green at apex.
26200245	South America	Ecuador	Azuay		Cajas. Parque Nacional Cajas, Road Cuenca-Sayausí-Molleturo km 36. Trail to Paragüillas, at the pass. Grass páramo, disturbed, up to rocky and sandy ridge. Specimens preserved in 70% alcohol before drying.	4100 - 4440 m	"02°46'19""S 079°14'37""W - 02°45'35""S 079°14'46""W"	-2,77194	-79,24361	Acaulescent herb, rosette-forming base of leaves pink. Flowers white flushed with pink, anthers pink.
26200245	South America	Ecuador	Azuay	Cuenca	"Parque Nacional Cajas, km 35.7 redondel Cuenca-Molleturo, en el paso, sendero Paragüillas; Páramo de pajonal hacia peñasco rocoso."	4100 - 4180 m	"02°46'39""S 079°14'30""W - 02°46'10""S 079°14'41""W"	-2,7775	-79,2416666	Hierba acaulescente creciendo en arena, cáliz verde rojizo, corola lila páliado, frutos rojo-rosados. Bases de la hojas con tintes morados.
29200665	South America	Ecuador	Azuay	Cuenca	Parque Nacional Cajas km 32.1 Cuenca-Molleturo, Laguna Toreadora, sendero alrededor de la laguna.	3850 m	"02°46'46""S 079°13'18""W - 02°46'56""S 079°13'24""W"	-2,7794445	-79,2216667	Hierba 0.5 m, tricomas blancos, corola amarilla, cerrada.
4101583	South America	Ecuador	Azuay	Cuenca	Parque Nacional Cajas, km 35 Cuenca-Molleturo, Centro de Información, Laguna Toreadora sendero oeste.	3880 - 3890 m	"02°46'56""S 079°13'26""W - 02°46'43""S 079°13'33""W"	-2,7822223	-79,2238889	Hierba, 45 cm, envés de la hojas y cáliz morado-café, corola lila, frutos verdes con morado-café.
29202221	South America	Ecuador	Azuay	Cuenca	Area Nacional de Recreación Cajas. Laguna Toreadora and Virgen Machay. Mostly Paramo with remnant Montane Wet Forest.	4000 - 4400 m	02°46'S 079°13'W	-2,76666	-79,21666	Terrestrial herb. Corolla bright red.
29202221	South America	Ecuador	Azuay	Cuenca	"Parque Nacional Cajas, km 35.7 redondel Cuenca-Molleturo, en el paso, sendero Paragüillas; Páramo de pajonal hacia peñasco rocoso."	4100 - 4180 m	"02°46'39""S 079°14'30""W - 02°46'10""S 079°14'41""W"	-2,7775	-79,2416666	Hierba 10-15 cm, hojas verdes con morado, brácteas terminales rojo brillantes, flores verdes, anteras amarillas.
6300620	South America	Ecuador	Azuay	Cuenca	"Parque Nacional Cajas, km 35.7 redondel Cuenca-Molleturo, en el paso, sendero Paragüillas; Páramo de pajonal hacia peñasco rocoso."	4100 - 4180 m	"02°46'39""S 079°14'30""W - 02°46'10""S 079°14'41""W"	-2,7775	-79,2416666	Hierba decumbente creciendo sobre rocas, densamente panosa en tallos, hojas y cáliz, corola blanca con líneas verde claras, fruto verde, semillas amarillas.
6300620	South America	Ecuador	Azuay		Cajas National Park, E. flanks of Cerro Amarillo ( 4451 m.a.s.l.), transition from the grass paramo of Calamagrostis intermedia and lower superparamo formed by shrubs of Loricaria spp. and cushions of Azorella aretioides, and Werneria humilis.	4240-4300 m	02°45'S 079°15'W	-2,75	-79,25	
2728050	South America	Ecuador	Azuay	Cuenca	Area Nacional de Recreación Cajas. Laguna Toreadora. Mostly paramo with remnant Montane Wet Forest.	3800 m	02°48'S 079°08'W	-2,8	-79,13333	Shrub, 2 m tall. Flowers orange.
2728050	South America	Ecuador	Azuay		Parque Nacional Cajas. Road Cuenca-Sayausí-Molleturo, beyond the pass. Km 47.8. Páramo vegetation.	3720 m	"02°47'56""S 079°18'17""W"	-2,7988889	-79,3047222	Shrub 0.5 m. Heads bright orange covered with silver pubescence.
2728050	South America	Ecuador	Azuay	Cuenca	Parque Nacional Cajas, km 35.7 redondel Cuenca-Molleturo, en el paso, sendero Paraqüillas ca. 1.5 km hacia Cerro Amarillo. Páramo con almohadillas de Plantago rigida, Chuquiraga jussieu y Loricaria.	4180 - 4260 m	"02°46'10""S 079°14'41""W - 02°45'52""S 079°14'46""W"	-2,7694445	-79,2447222	Arbustos 2 m, capítulos anaranjados, densamente blanco pubescentes.
2728050	South America	Ecuador	Azuay		Laguna Toreadora, Las Cajas. Semihumid paramo dominated by grass tussocks and cushion plants, mainly of the families Asteraceae, Apiaceae and Valerianaceae. Scattered shrubs and Puyas. Soil temp.: 8° C.	3900 m	02°43'S 079°12'W	-2,7166667	-79,2	Shrubs about 1.5 m. tall. Flowers orange.
2728050	South America	Ecuador	Azuay		Páramo de Soldados, at highest point of road W of Soldados. Bunch grass and cushion paramo, paramo scrub and Polylepis forest.	3700 - 4000 m	02°57'S 079°18'W	-2,95	-79,3	1 m tall shrub, in scrub.
17605046	South America	Ecuador	Azuay	Cuenca	Area Nacional de Recreación Cajas. Laguna Toreadora and Virgen Machay. Mostly Paramo with remnant Montane Wet Forest.	4000 - 4400 m	02°46'S 079°13'W	-2,7666667	-79,2166667	Terrestrial creeping herb on eroded trail. Vegetation very fragrant and used for making tea. Corolla white. Common name: Tipo.
17605046	South America	Ecuador	Azuay		Parque Nacional Cajas. Road Cuenca-Sayausí-Molleturo, beyond the pass. Km 47.8. Páramo vegetation.	3720 m	"02°47'56""S 079°18'17""W"	-2,7988889	-79,3047222	Creeping shrub. Flowers white suffused with purple. Leaves aromatic.
17605046	South America	Ecuador	Azuay	Cuenca	Parque Nacional Cajas, km 28 redondel Cuenca-Molleturo. Sendero Laguna Patoquinoas, páramo de pajonal y bosque de Polylepis.	3730 m	"02°47'09""S 079°12'18""W"	-2,7858333	-79,205	"Hierba rastrera, flores blancas con lila, aromática. ""Tipo""."
2733144	South America	Ecuador	Azuay		Parque Nacional Cajas. Road Cuena-Sayausí-Molleturo, km 30.2. Very wet páramo around lake at the entrance to trail leading to Laguna Mamamag.	3810 m	"02°47'35""S 079°12'14""W"	-2,79305	-79,20388	Shrub 1 m. Ray florets bright yellow, disk florets light brown.
2733144	South America	Ecuador	Azuay		Parque Nacional Cajas. Páramo de Soldados. Road Baños-Soldados-Chaucha, km 34.4. Burnt and grazed grass páramo and cushion plants on wet areas along creek.	3700 m	"02°54'06""S 079°15'40""W"	-2,90166	-79,26111	Shrub 0.8 m, densely white-lanose. Ray corollas white, old disk corollas brown.
2733144	South America	Ecuador	Azuay	Cuenca	Parque Nacional Cajas, km 32.1 desde redondel Cuenca-Molleturo. Sendero este alrededor de Laguna Toreadora. Páramo de pajonal.	3850 - 3870 m	"02°46'56""S 079°13'24""W - 02°46'46""S 079°13'18""W"	-2,7822223	-79,2233334	Arbusto 2 m, flósculos del radio amarillo brillantes, flósculos del disco cafés, pubescencia de las hojas blanco sucio.
2733144	South America	Ecuador	Azuay		Parque Nacional Cajas, Laguna Toreadora.	3950 m	"02°46'59""S 079°13'26""W"	-2,783	-79,2239167	Arbusto, ligulas lilas, flores del centro amarillentas.
2705432	South America	Ecuador	Azuay		Laguna Toreadora, Las Cajas. Semihumid paramo dominated by grass tussocks and cushion plants, mainly of the families Asteraceae, Apiaceae and Valerianaceae. Scattered shrubs and Puyas. Soil temp.: 8° C.	3900 m	02°43'S 079°12'W	-2,71666	-79,2	Shrub about 0.5 m. tall. Ray flowers lilac, disc flo- wers yellow.
2705432	South America	Ecuador	Azuay		Parque Nacional Cajas. Road Cuenca-Sayausí-Molleturo, km 38.4. From the pass to the top of ridge north of pass. Páramo vegetation.	4110 - 4350 m	"02°46'38""S 079°14'09""W - 02°46'09""S 079°14'39""W"	-2,77722	-79,23583	Shrub 1 m. Heads with ray corollas pale violet, disk corollas yellow turning brown.
2705432	South America	Ecuador	Azuay	Cuenca	Vía San Joaquín-Soldados-Chaucha, km 40.2, (12.8 km desde Soldados). Parque Nacional Cajas, páramo de pajonal.	3950 - 4090 m	"02°54'28""S 079°17'01""W - 02°54'18""S 079°17'18""W"	-2,9077778	-79,2836111	Arbusto 0.4 m. Envés de las hojas densamente panoso. Brácteas pajizas. Ligulas lilas con ápice morado. Flósculo tubulares verdosos, papus morado, estigma amarillo.
2705432	South America	Ecuador	Azuay		Páramos El Cajas west of Sayausí and Cuenca. Bunchgrass-páramo, Plantago rigida bog and small lakes.	4100 m	02°50'S 079°12'W	-2,83333	-79,2	1 m high shrub. Flowers purple.
2705432	South America	Ecuador	Azuay		San Joaquín - Soldados road above Soldados. Humid páramo with remnants of Polylepis weberbauerii forest around lakes.	3800 m	02°55'S 079°13'W	-2,91666	-79,21666	Shrub 1.5 m high. Ray florets light blue, disk florets brown.
12300816	South America	Ecuador	Azuay		10 km NW of Cuenca. Part of Cajas. Mountain forest at Laguna.	3000 m	02°49'S 079°10'W	-2,81666	-79,16666	Herb, up to 40 cm tall. Woody stalk. Petals rosepink. Sepals green.
12300816	South America	Ecuador	Azuay	Cuenca	Area Nacional de Recreación Cajas. Laguna Toreadora. Mostly Paramo with remnant Montane Wet Forest.	3800 m	02°46'S 079°13'W	-2,7666667	-79,2166667	Climber.
12300816	South America	Ecuador	Azuay	Cuenca	Totorococha-Mazán valley, Area Nacional de Recreación CAJAS	3400 m	02°53'S 079°10'W	-2,88333	-79,16666	
12300816	South America	Ecuador	Azuay		Parque Nacional Cajas. Road Cuenca-Sayausí-Molleturo, km 38.4. From the pass to the top of ridge north of pass. Páramo vegetation.	4110 - 4350 m	"02°46'38""S 079°14'09""W - 02°46'09""S 079°14'39""W"	-2,77722	-79,23583	Creeping herb growing on rocky soil. Corolla pink, ovary light green.
12300816	South America	Ecuador	Azuay	Cuenca	Parque Nacional Cajas, km 32.1 desde redondel Cuenca-Molleturo. Sendero este alrededor de Laguna Toreadora. Páramo de pajonal.	3850 - 3870 m	"02°46'56""S 079°13'24""W - 02°46'46""S 079°13'18""W"	-2,7822223	-79,2233334	Hierba rastrera entre almohadillas, corola rosado oscura.
12300816	South America	Ecuador	Azuay	Cuenca	Parque Nacional Cajas: remanente de bosque al lado del control km 26 Cuenca-Molleturo.	3600 m	02°47'S 079°12'W	-2,7833333	-79,2	Trepadora sobre Polylepis, corola rosado fuerte.
2733220	South America	Ecuador	Azuay		Cuenca, about 25 km on the road to Cajas. Paramo.	3500 m	02°48'S 079°08'W	-2,8	-79,13333	Herb, until 40 cm tall. Ray flowers yellow. Disc flowers orange. Growing at small brook.
2733220	South America	Ecuador	Azuay		Laguna Toreadora, Las Cajas. Semihumid paramo dominated by grass tussocks and cushion plants, mainly of the families Asteraceae, Apiaceae and Valerianaceae. Scattered shrubs and Puyas. Soil temp.: 8° C.	3900 m	02°43'S 079°12'W	-2,71666	-79,2	Growing in almost dry creeks. Flowers yellow.
2733220	South America	Ecuador	Azuay		Road Chiquintad-Labrado. North side ending at the dam Presa Chanlud, km 26.9. Distured upper Andean forest and grass páramo.	3340 - 3520 m	"02°41'54""S 079°01'48""W - 02°40'57""S 079°02'03""W"	-2,69833	-79,03	Herb. Heads bright yellow.
2733220	South America	Ecuador	Azuay	Cuenca	Parque Nacional Cajas, km 32.1 desde redondel Cuenca-Molleturo. Bosque de Polylepis abajo de la casa de información, Laguna La Toreadora.	3880 m	"02°46'56""S 079°13'26""W"	-2,7822223	-79,2238889	Hierba terrestre, hojas en roseta basal, nervio principal, brácteas y filiarias moradas,flósculos amarillos.
2733220	South America	Ecuador	Azuay		Carretera Partidero Llantera-chiquintad-Represa de la Empresa Eléctrica-Labrado, km 33, vegetación de Ceja Andina y Páramo.					Hierba, capítulos amarillos.
4104861	South America	Ecuador	Azuay		Páramos, in vicinity of Toreador, between Molleturo and Quinoas.	3810 - 3930 m	"02°47'00""S 079°19'48""W"	-2,7833	-79,33	
4104861	South America	Ecuador	Azuay		Parque Nacional Cajas. Road Cuenca-Sayausí-Molleturo, beyond the pass. Km 47.8. Páramo vegetation.	3720 m	"02°47'56""S 079°18'17""W"	-2,7988889	-79,3047222	Herb on rocky outcrops. Calyx green with maroon tips. Corolla dark red-pink, tube greenish white.
4104861	South America	Ecuador	Azuay	Cuenca	Parque Nacional Cajas, km 28 redondel Cuenca-Molleturo. Sendero izquierdo Laguna Patoquinoas, páramo de pajonal y bosque de Polylepis.	3730 - 3800 m	"02°47'09""S 079°12'18""W - 02°46'58""S 079°12'43""W"	-2,7858333	-79,205	Hierba leñosa creciendo sobre roca. Corola rosado-morado oscura, blanca hacia la base, cáliz con tintes morados, cápsulas verde claras con la sutura morada.
4104861	South America	Ecuador	Azuay		Parque Nac. de Las Cajas, along trail from highest point on Molleturo-road to Paragüillas. Páramo.	4100-4200 m	02°49'S 079°15'W	-2,81666	-79,25	
4104861	South America	Ecuador	Azuay		Cajas National Park, lower Loricaria spp. superp·ramo with scattered bunchgrasses and upper superp·ramo vegetation of the mountain ridge to the S of Cerro Parag¸llas (4410 m a.s.l., ca 1.5 km to the N of the mountain pass of the road Cuenca - Miguir).	4250 - 4400 m	01°45'S 078°27'W	-1,75	-78,45	
4104861	South America	Ecuador	Azuay		"Paramo de Las Cajas, Laguna Suerococha, 25 km on Cuenca-Molleturo road; mountain 1 km NW of pass."	4200 - 4400 m	02°48'S 079°14'W	-2,8	-79,2333333	Ascending, low, shrubby plant. Corolla purple, the anthers yellow.
4104861	South America	Ecuador	Azuay		Growing on E and W slopes of rocks along the path leading away from the antennas at 'Tres Cruzes' of Parque Nacional Cajas.	4233 m	"02°46'54""S 079°14'16""W"	-2,7816667	-79,2377777	Large subshrubs, with both leaf surfaces containing trichomes. Raceme bracteate. Flowers with dark-fuchsia to purple petals which have a greenish, light-yellow base and dark-purple sepals.
14300006	South America	Ecuador	Azuay	Cuenca	Parque Nacional Cajas, km 28 redondel Cuenca-Molleturo. Sendero Laguna Patoquinoas, páramo de pajonal y bosque de Polylepis.	3730 m	"02°47'09""S 079°12'18""W"	-2,7858333	-79,205	Hierba rastrera, conos verdes con margen café-rojizo, tornandose rojizos.
14300006	South America	Ecuador	Azuay		Parque Nacional Cajas. Road Cuenca-Sayausí-Molleturo, beyond the pass. Km 47.8. Páramo vegetation.	3720 m	"02°47'56""S 079°18'17""W"	-2,79888	-79,30472	Shrub, creeping, ca. 0.2 m high. Bracts green with maroon margins.
23509220	South America	Ecuador	Azuay		Cuenca to Molleturo. Las Cajas.	3800 m				
23509220	South America	Ecuador	Azuay		6-8 km E of Las Cajas along road to Sayausi	3600 m	"02°48'00""S 079°14'24""W"	-2,8	-79,24	Pendent from rock. Flowers lemon-yellow.
23509220	South America	Ecuador	Azuay		6-8 km E of Las Cajas along road to Sayausi	3600 m	"02°48'00""S 079°14'24""W"	-2,8	-79,24	Epiphyte on Polylepis-trunk. Flowers lemon yellow.
23509220	South America	Ecuador	Azuay		3 km E Las Cajas	3600 m	"02°11'10""S 079°16'00""W"	-2,186	-79,2667	Terrestrial or epiphytic. Flowers pale yellow.
23509220	South America	Ecuador	Azuay	Cuenca	Area Nacional de Recreación Cajas. Collections made between La Laguna Llaviucu via dirt road to main highway from Cuenca. Mostly Paramo with remnant patches of Montane Wet Forest.	3100 - 3200 m	02°53'S 079°08'W	-2,88333	-79,13333	Common epiphytic climber in remnant Polylepis forest. Corolla and calyx yellow.
23509220	South America	Ecuador	Azuay	Cuenca	Area Nacional de Recreación Cajas. Collections made between La Laguna Llaviucu via dirt road to main highway from Cuenca. Mostly Paramo with remnant patches of Montane Wet Forest.	3100 - 3200 m	02°53'S 079°08'W	-2,88333	-79,13333	Epiphyte in remnant Polylepis forest. Corolla and calyx yellow. Roots succulent and white. Stem black.
23509220	South America	Ecuador	Azuay		Parque Nacional Cajas. Road Cuenca-Sayausí-Molleturo, beyond the pass. Km 47.8. Páramo vegetation.	3720 m	"02°47'56""S 079°18'17""W"	-2,79888	-79,30472	Terrestrial herb. Flowers yellow-green. Fruits light green.
23509220	South America	Ecuador	Azuay	Cuenca	Parque Nacional Cajas, km 28 redondel Cuenca-Molleturo. Sendero izquierdo Laguna Patoquinoas, páramo de pajonal y bosque de Polylepis.	3730 - 3800 m	"02°47'09""S 079°12'18""W - 02°46'58""S 079°12'43""W"	-2,7858333	-79,205	Epífito sobre Polylepis. Flores amarillo verdosas.
26605510	South America	Ecuador	Azuay	Cuenca	Parque Nacional Cajas, km 28 Cuenca-Molleturo.  Entrada hacia Patoquinoas. Al lado del carretero.	3730 m	"02°47'09""S 079°12'18""W"	-2,7858333	-79,205	Hierba creciendo en agua, hojas escamosas con márgen café. Estróbilos café oscuros.
26605510	South America	Ecuador	Azuay		Lagunas del Parque Nacional Cajas. Sector Toreadora	3810 m	"02°48'40""S 079°14'37""W"	-2,81111	-79,24361	Macrófita enraizada sumergida, creciendo aisladamente al rededor de la laguna. Crece hasta 30 cm de profundidad en sustrato fangoso.
1701117	South America	Ecuador	Azuay		Cuenca, about 25 km on the road to Cajas. Paramo.	3500 m	02°48'S 079°08'W	-2,8	-79,13333	Herb, until 10 cm tall. Ventral side of sepals green. Dorsal side white. No ray flowers. Disc flowers dark violet.
1701117	South America	Ecuador	Azuay		Laguna Toreadora, Las Cajas. Semihumid paramo dominated by grass tussocks and cushion plants, mainly of the families Asteraceae, Apiaceae and Valerianaceae. Scattered shrubs and Puyas. Soil temp.: 8° C.	3900 m	02°43'S 079°12'W	-2,71666	-79,2	
1701117	South America	Ecuador	Azuay	Cuenca	Area Nacional de Recreación Cajas. Collections made between La Laguna Llaviucu via dirt road to main highway to Cuenca. Mostly Paramo with remnant patches of Montane Wet Forest.	3100 - 3200 m	02°53'S 079°08'W	-2,88333	-79,13333	Terrestrial herb. Growing in wet soil.
1701117	South America	Ecuador	Azuay		Parque Nacional Cajas. Road Cuenca-Sayausí-Molleturo. At the pass, km 38.4. Grass páramo vegetation.	4110 - 4230 m	"02°46'38""S 079°14'27""W"	-2,7772223	-79,2408333	Rosette-forming herb. Flowers grayish-white.
1701117	South America	Ecuador	Azuay	Cuenca	Parque Nacional Cajas, km 28 redondel Cuenca-Molleturo. Sendero Laguna Patoquinoas, páramo de pajonal y bosque de Polylepis.	3730 m	"02°47'09""S 079°12'18""W"	-2,7858333	-79,205	Hierba con roseta basal de hojas, brácteas verdes con rayas blancas, flores negro-moradas.
1701117	South America	Ecuador	Azuay		Soldados, app. 20 W. of Cuenca.	3500 m	02°55'S 079°14'W	-2,91666	-79,23333	
1701117	South America	Ecuador	Azuay		From Soldados eastwards along the road until Hda. San Vicente (west of Cuenca). Patches of Polylepis-forest and hedges along road.	3200-3300 m	02°56'S 079°10'W	-2,93333	-79,16666	On dry roadbank.
29100693	South America	Ecuador	Azuay		Camino de Chiquintad hacia Labrados.	2800 m				Arbol de 3.5 m. Frutos jóvenes verdes y cafés.
29100693	South America	Ecuador	Azuay	Cuenca	Area Nacional de Recreación Cajas. Collections made between La Laguna Llaviucu via dirt road to main highway to Cuenca. Mostly Paramo with remnant patches of Montane Wet Forest.	3100 - 3200 m	02°53'S 079°08'W	-2,8833333	-79,1333333	Tree in disturbed forest.
29100693	South America	Ecuador	Azuay		Parque Nacional Cajas. Páramo de Soldados. Road Cuenca-San Joaquín-Soldados.  Above Soldados, off road within the Park, km 51.7. Burnt and regenerated páramo.	3680 - 3870 m	"02°53'01""S 079°18'31""W - 02°53'34""S 079°18'36""W"	-2,8836111	-79,3086111	Tree 4 m. Flowers light green flushed with red.
29100693	South America	Ecuador	Azuay	Cuenca	Parque Nacional Cajas: remanente de bosque al lado del control km 26 Cuenca-Molleturo.	3600 m	02°47'S 079°12'W	-2,7833333	-79,2	Arbusto 1 m. Frutos verde amarillento, estigma negro.
29100693	South America	Ecuador	Azuay		Carretera Cuenca-Area de Recreación Cajas, colecciones en potrero, bosque secundario y alrededores de la laguna de la localidad denominada Surrucuchu, sector SO de cuenca.	3000 - 3250 m	02°50'S 079°13'W	-2,8333333	-79,2166667	Arbusto de 2 m, en borde de quebrada, flores amarillo-verdoso.
23200095	South America	Ecuador	Azuay	Cuenca	Parque Nacional Cajas: remanente de bosque al lado del control km 26 Cuenca-Molleturo.	3600 m	02°47'S 079°12'W	-2,7833333	-79,2	Hierba gruesa, 1.5 m, tallo y pecíolos rojizos. Flores rosado-anaranjadas.
27909757	South America	Ecuador	Azuay		Las Cajas. Small isolated patches with Polylepis forest near Laguna Toreadora. Soil temp.: 8° C.	3900 m	02°43'S 079°12'W	-2,71666	-79,2	
27909757	South America	Ecuador	Azuay	Cuenca	Parque Nacional Cajas, km 32.1 Cuenca-Molleturo. Sendero Laguna La Toreadora-Lagunas Unidas. Páramo de pajonal con bosque de Polylepis al final.	3850 - 3860 m	"02°46'56""S 079°13'24""W - 02°46'27""S 079°13'14""W"	-2,7822223	-79,2233334	Hierba rastrera, pubescente, frutos anaranjado brillantes. En bosque de Polylepis.
13800257	South America	Ecuador	Azuay		Laguna Toreadora, Las Cajas. Semihumid paramo dominated by grass tussocks and cushion plants, mainly of the families Asteraceae, Apiaceae and Valerianaceae. Scattered shrubs and Puyas. Soil temp.: 8° C.	3900 m	02°43'S 079°12'W	-2,71666	-79,2	
13800257	South America	Ecuador	Azuay		Parque Nacional Cajas. Road Cuenca-Sayausí-Molleturo, beyond the pass. Km 47.8. Páramo vegetation.	3720 m	"02°47'56""S 079°18'17""W"	-2,79888	-79,30472	Herb in cushion. Corolla blue-lilac.
13800257	South America	Ecuador	Azuay	Cuenca	Parque Nacional Cajas, km 32.1 desde redondel Cuenca-Molleturo. Sendero este alrededor de Laguna Toreadora. Páramo de pajonal.	3850 - 3870 m	"02°46'56""S 079°13'24""W - 02°46'46""S 079°13'18""W"	-2,7822223	-79,2233334	Hierba entre almohadillas. Pétalos celestes con base blanca.
13800257	South America	Ecuador	Azuay		10 km NW of Cuenca. Part of Cajas. Mountain forest at Laguna.	3000 m	02°49'S 079°10'W	-2,81666	-79,16666	Herb, 5 cm tall. Petals light blue. Sepals green with red central line. Growing in meadow.
13800126	South America	Ecuador	Azuay	Cuenca	Area Nacional de Recreación Cajas. Collections made between La Laguna Llaviucu via dirt road to main highway to Cuenca. Mostly Paramo with remnant patches of Montane Wet Forest.	3100 - 3200 m	02°53'S 079°08'W	-2,88333	-79,13333	Terrestrial herb. Corolla violet blue.
13800126	South America	Ecuador	Azuay	Cuenca	Area Nacional de Recreación Cajas. Laguna Toreadora and Virgen Machay. Mostly Paramo with remnant Montane Wet Forest.	4000 - 4400 m	02°46'S 079°13'W	-2,76666	-79,21666	Terrestrial herb. Petals violet blue.
13800126	South America	Ecuador	Azuay		Parque Nacional Cajas. Road Cuenca-Sayausí-Molleturo, km 38.4. From the pass to the top of ridge north of pass. Páramo vegetation.	4110 - 4350 m	"02°46'38""S 079°14'09""W - 02°46'09""S 079°14'39""W"	-2,77722	-79,23583	Herb growing in cushion plants. Corolla violet, filaments light yellow, anthers black.
13800126	South America	Ecuador	Azuay	Cuenca	Parque Nacional Cajas, km 32.1 desde redondel Cuenca-Molleturo. Sendero este alrededor de Laguna Toreadora. Páramo de pajonal.	3850 - 3870 m	"02°46'56""S 079°13'24""W - 02°46'46""S 079°13'18""W"	-2,7822223	-79,2233334	Hierba entre almohadillas, pétalos lilas.
13800126	South America	Ecuador	Azuay	Cuenca	Parque Nacional Cajas, km 28 redondel Cuenca-Molleturo. Sendero izquierdo Laguna Patoquinoas, páramo de pajonal y bosque de Polylepis.	3730 - 3800 m	"02°47'09""S 079°12'18""W - 02°46'58""S 079°12'43""W"	-2,7858333	-79,205	Hierba creciendo en almohadillas, corola lila con nervios morados.
13800126	South America	Ecuador	Azuay		Laguna Toreadora, Las Cajas. Semihumid paramo dominated by grass tussocks and cushion plants, mainly of the families Asteraceae, Apiaceae and Valerianaceae. Scattered shrubs and Puyas. Soil temp.: 8° C.	3900 m	02°43'S 079°12'W	-2,71666	-79,2	Forming small cushions. Flowers lilac.
13800126	South America	Ecuador	Azuay		Cuenca, about 25 km on the road to Cajas. Paramo.	3500 m	02°48'S 079°08'W	-2,8	-79,13333	Herb, until 8 cm tall. Petals light blueish violet. Style yellow. Filaments white. Anthers blueish black.
13800126	South America	Ecuador	Azuay		Area de recreacion Las Cajas, 18 km al Occidental de Cuenca.	2800-3400 m				Flores lilas.
13801755	South America	Ecuador	Azuay		Around Laguna Toreadora in Parque Nacional de Cajas, c. 35 km WNW of Cuenca. Polylepis forest and grass paramo.	3950 m	02°46'S 079°13'W	-2,76666	-79,21666	Forming colonies. Petals bright yellow, distally with red margins. Common.
13801755	South America	Ecuador	Azuay	Cuenca	Area Nacional de Recreación Cajas. Laguna Toreadora. Mostly paramo with remnant Montane Wet Forest.	3800 m	02°48'S 079°08'W	-2,8	-79,13333	Herb, 5 cm tall. Flowers reddish-yellow.
13801755	South America	Ecuador	Azuay	Cuenca	Area Nacional de Recreación Cajas. Collections made between La Laguna Llaviucu via dirt road to main highway to Cuenca. Mostly Paramo with remnant patches of Montane Wet Forest.	3100 - 3200 m	02°53'S 079°08'W	-2,88333	-79,13333	"Terrestrial herb. Corolla closed; horizontally half red and half yellow."
13801755	South America	Ecuador	Azuay	Cuenca	Area Nacional de Recreación Cajas. Laguna Toreadora and Virgen Machay. Mostly Paramo with remnant Montane Wet Forest.	4000 - 4400 m	02°46'S 079°13'W	-2,76666	-79,21666	"Terrestrial herb. Petals fused at base; mostly yellow with red margins on outside. Petals closed (cleistogomous?)."
13801755	South America	Ecuador	Azuay	Cuenca	Carretera Cuenca-Sayausí-Area Nacional de Recreación Cajas. Bosque muy húmedo Sub-alpino.	3150 - 3500 m	02°50'S 079°15'W	-2,83333	-79,25	Hierba de 50 cm de altura. Flores amarillas con el ápice rojo.
13801755	South America	Ecuador	Azuay		Totorococha-Mazan valley, Area Nacional de Recreación CAJAS	3500 m	02°53'S 079°10'W	-2,88333	-79,16666	
13801755	South America	Ecuador	Azuay	Cuenca	Parque Nacional El Cajas.  Laguna Toreador.	3500 m	02°53'S 079°08'W	-2,88333	-79,13333	"Terrestrial herb, 10 cm tall. Corolla urceolate, scarcely opening; yellow to orange-yellow; lobes suffused with reddish-orange toward edge. See photos."
13801755	South America	Ecuador	Azuay		Parque Nacional Cajas. Road Cuenca-Sayausí-Molleturo. At the pass, km 38.4. Grass páramo vegetation.	4110 - 4230 m	"02°46'38""S 079°14'27""W"	-2,77722	-79,24083	Herb. Corolla bright yellow suffused with red on margins of petals. Photo.
13801755	South America	Ecuador	Azuay		Parque Nacional Cajas. Páramo de Soldados. Road Cuenca-San Joaquín-Soldados.  Above Soldados, off road within the Park, km 51.7. Burnt and regenerated páramo.	3680 - 3870 m	"02°53'01""S 079°18'31""W - 02°53'34""S 079°18'36""W"	-2,88361	-79,30861	Herb growing in cushion-plant. Corolla bright orange with margins of tepals bright red.
13801755	South America	Ecuador	Azuay	Cuenca	Parque Nacional Cajas, km 32.1 desde redondel Cuenca-Molleturo. Sendero este alrededor de Laguna Toreadora. Páramo de pajonal.	3850 - 3870 m	"02°46'56""S 079°13'24""W - 02°46'46""S 079°13'18""W"	-2,7822223	-79,2233334	Hierba entre almohadillas, pétalos amarillos con el un margen rojo-anaranjado, imbricados.
13801755	South America	Ecuador	Azuay		Parque Nacional de Cajas, WNW of Cuenca. Humid depression in grass paramo.	3950 m	02°51'S 079°12'W	-2,85	-79,2	Flower buds with brownish red tip, unfolded petals with a characteristic right margin of tip reddish.
13801755	South America	Ecuador	Azuay		Laguna Toreadora, Las Cajas. Semihumid paramo dominated by grass tussocks and cushion plants, mainly of the families Asteraceae, Apiaceae and Valerianaceae. Scattered shrubs and Puyas. Soil temp.: 8° C.	3900 m	02°43'S 079°12'W	-2,71666	-79,2	Adscendent shoots. Petals yellow, some with red apex.
13801755	South America	Ecuador	Azuay		San Joaquín - Soldados road above Soldados. Humid páramo with remnants of Polylepis weberbauerii forest around lakes.	3800 m	02°55'S 079°13'W	-2,91666	-79,21666	Cushion plant growing inbetween Jamesonia (no. 56264). Calyx green. Corolla yellow at bottom, red apex.
13801755	South America	Ecuador	Azuay		Coloecciones en Parque de Recreación Cajas, vegetacion arbustiva de Polylepis y Pajonal.	4000 - 4100 m				Hierba, con flores amarillas y rojas.
13801755	South America	Ecuador	Azuay		Parque Nacional Cajas, Laguna Toreadora.	3950 m	"02°46'59""S 079°13'26""W"	-2,783	-79,2239167	Corola amarilla anaranjada.
13801759	South America	Ecuador	Azuay	Cuenca	Area Nacional de Recreación Cajas. Laguna Toreadora. Mostly Paramo with remnant Montane Wet Forest.	3800 m	02°46'S 079°13'W	-2,76666	-79,21666	Herb, 20 cm tall. Flowers yellowish-red.
13801759	South America	Ecuador	Azuay	Cuenca	Area Nacional de Recreación Cajas. Collections made between La Laguna Llaviucu via dirt road to main highway to Cuenca. Mostly Paramo with remnant patches of Montane Wet Forest.	3100 - 3200 m	02°53'S 079°08'W	-2,88333	-79,13333	Terrestrial herb, 45 cm tall. Petals yellow with red margins.
13801759	South America	Ecuador	Azuay	Cuenca	Area Nacional de Recreación Cajas. Laguna Toreadora and Virgen Machay. Mostly Paramo with remnant Montane Wet Forest.	4000 - 4400 m	02°46'S 079°13'W	-2,76666	-79,21666	Terrestrial herb, 45 cm tall. Calyx green. Petals fused at base, mostly yellow with red margins on outside. Petals closed.
13801759	South America	Ecuador	Azuay		Parque Nacional Cajas. Road Cuenca-Sayausí-Molleturo km 28. 5 x 5 m plot in grass páramo, burnt and regenerated. Specimens preserved in 70% alcohol before drying.	3700 m	"02°46'59""S 079°12'16""W"	-2,78305	-79,20444	Herb, flower buds yellow tinged with orange to pinkish-red.
13801759	South America	Ecuador	Azuay	Cuenca	Parque Nacional Cajas, km 28 redondel Cuenca-Molleturo. Sendero Laguna Patoquinoas, páramo de pajonal y bosque de Polylepis.	3730 m	"02°47'09""S 079°12'18""W"	-2,7858333	-79,205	Hierba 0.4 m, pétalos rojo-rosados en la parte expuesta, amarillos en la parte traslapada.
13801759	South America	Ecuador	Azuay		San Joaquín - Soldados road above Soldados. Humid páramo with remnants of Polylepis weberbauerii forest around lakes.	3800 m	02°55'S 079°13'W	-2,91666	-79,21666	Herb. Calyx green. Corolla yellow at bottom red at apex.
13801759	South America	Ecuador	Azuay		Páramo de Cajas, Chuspipuñuna, matorral de Gynoxys	3440 m	"02°48'09""S 079°13'06""W"	-2,8025	-79,21833	herbácea flor anaranjada
13801791	South America	Ecuador	Azuay	Cuenca	Parque Nacional El Cajas.  Laguna Toreador.	3500 m	02°53'S 079°08'W	-2,88333	-79,13333	Terrestrial herb, 30 cm tall. Corolla yellowish-green. Small trichomes at base of each petal.
13801791	South America	Ecuador	Azuay		Parque Nacional Cajas. Road Cuenca-Sayausí-Molleturo, km 38.4. From the pass to the top of ridge north of pass. Páramo vegetation.	4110 - 4350 m	"02°46'38""S 079°14'09""W - 02°46'09""S 079°14'39""W"	-2,77722	-79,23583	Herb 0.3 m. Leaves tinged with purple below. Flowers light greenish yellow, anthers black.
13801791	South America	Ecuador	Azuay	Cuenca	Parque Nacional Cajas, km 32.1 desde redondel Cuenca-Molleturo. Bosque de Polylepis abajo de la casa de información, Laguna La Toreadora.	3880 m	"02°46'56""S 079°13'26""W"	-2,7822223	-79,2238889	Hierba escandente, 2 m, tallos y pecíolos rosado-morados, flores verde-amarillentas.
13801791	South America	Ecuador	Azuay	Cuenca	Parque Nacional Cajas, km 35.7 redondel Cuenca-Molleturo, en el paso, sendero Paraqüillas ca. 1.5 km hacia Cerro Amarillo. Páramo con almohadillas de Plantago rigida, Chuquiraga jussieu y Loricaria.	4180 - 4260 m	"02°46'10""S 079°14'41""W - 02°45'52""S 079°14'46""W"	-2,7694445	-79,2447222	Hierba erecta, 0.4 m, tallos y hojas con tintes morados cáliz verde con morado, corola verde clara con tintes morados en los márgenes, estambres y anteras morados, ovario verde con morado.
13801791	South America	Ecuador	Azuay		Las Cajas. Small isolated patches with Polylepis forest near Laguna Toreadora. Soil temp.: 8° C.	3900 m	02°43'S 079°12'W	-2,71666	-79,2	
13801791	South America	Ecuador	Azuay		San Joaquín - Soldados road above Soldados. Humid páramo with remnants of Polylepis weberbauerii forest around lakes.	3800 m	02°55'S 079°13'W	-2,91666	-79,21666	Hherb 0.4 m high. Calyx green. Corolla greenish yellow. Anthers dark violet
13801791	South America	Ecuador	Azuay		Around Laguna Toreadora in Parque Nacional de Cajas, c. 35 km WNW of Cuenca. Polylepis forest and grassparamo.	3950 m	02°46'S 079°13'W	-2,76666	-79,21666	Ca 40 cm tall. Corolla light green.
13801791	South America	Ecuador	Azuay		Páramo de Soldados, at highest point of road W of Soldados. Bunch grass and cushion paramo, paramo scrub and Polylepis forest.	3700-4000 m	02°57'S 079°18'W	-2,95	-79,3	In dense shrub. Flowers greenish yellow.
13801791	South America	Ecuador	Azuay		Páramo de Las Cajas, E. slope	3800 m				In Polylepis woods. Woody at bas, to 0.5m tall. corolla yellowish-green.
13900186	South America	Ecuador	Azuay	Cuenca	Parque Nacional Cajas, km 32.1 desde redondel Cuenca-Molleturo. Sendero este alrededor de Laguna Toreadora. Páramo de pajonal.	3850 - 3870 m	"02°46'56""S 079°13'24""W - 02°46'46""S 079°13'18""W"	-2,7822223	-79,2233334	Hierba, pétalos lila pálidos con rayas moradas.
13900186	South America	Ecuador	Azuay	Cuenca	Parque Nacional Cajas, km 35.7 redondel Cuenca-Molleturo, en el paso, sendero Paraqüillas ca. 1.5 km hacia Cerro Amarillo. Páramo con almohadillas de Plantago rigida, Chuquiraga jussieu y Loricaria.	4180 - 4260 m	"02°46'10""S 079°14'41""W - 02°45'52""S 079°14'46""W"	-2,7694445	-79,2447222	"Hierba rastrera densamente pubescente; corola blanca con líneas moradas."
13900186	South America	Ecuador	Azuay		Laguna Toreadora, Las Cajas. Semihumid paramo dominated by grass tussocks and cushion plants, mainly of the families Asteraceae, Apiaceae and Valerianaceae. Scattered shrubs and Puyas. Soil temp.: 8° C.	3900 m	02°43'S 079°12'W	-2,71666	-79,2	Petals pink with darker rays.
13900186	South America	Ecuador	Azuay		Cuenca, about 25 km on the road to Cajas. Paramo.	3500 m	02°48'S 079°08'W	-2,8	-79,13333	Herb, cushion. Petals light reddish violet with reddish veins. Anthers yellow.
13900186	South America	Ecuador	Azuay		"Páramo de Cajas, Chuspipuñuna, matorral de Gynoxys; turbera"	3440 m	"02°48'09""S 079°13'06""W"	-2,8025	-79,21833	
27800530	South America	Ecuador	Azuay		Shrub near the river on the road from Cuenca to Cajas. Mountain forest.	3100 m	02°49'S 078°08'W	-2,81666	-78,13333	Herb, up to 1 m tall. Petals yellow.
27800530	South America	Ecuador	Azuay		Páramo de Cajas, W of Cuenca. Along new road, c. 11 km W of pass. Roadside and grassy slope.	3450 m	02°48'S 079°17'W	-2,8	-79,28333	Flowers yellow.
27800530	South America	Ecuador	Azuay		Carretera Cuenca-Sayausi-Area de Recreación Cajas área de colecciones Guabidula a 18 Km aprox. de Cuenca.	3400-3500 m				Hierba en pajonal, cáliz verde, corola amarilla.
27800530	South America	Ecuador	Azuay		About 5 km NW of Sayausí on road to Cajas. Secondary cloud forest and mountain scrub along road.	3000 m	02°50'S 079°07'W	-2,83333	-79,11666	Corolla yellow.
27800530	South America	Ecuador	Azuay		Parque Nacional Cajas. Road Cuena-Sayausí-Molleturo, km 28.9. Around Laguna Patoquinoa, páramo vegetation with scattered Polylepis trees.	3700 - 3870 m	"02°46'56""S 079°12'14""W - 02°47'11""S 079°12'26""W"	-2,78222	-79,20388	Herb. Corolla and stamens bright yellow, stigmas light green.
27800530	South America	Ecuador	Azuay	Cuenca	Parque Nacional Cajas, km 28 redondel Cuenca-Molleturo. Sendero Laguna Patoquinoas, páramo de pajonal y bosque de Polylepis.	3730 m	"02°47'09""S 079°12'18""W"	-2,7858333	-79,205	Hierba 0.5 m, flores amarillas.
27800530	South America	Ecuador	Azuay		Las Cajas. Road from the refugio to Migüir, about 6 km from the refugio. Small patches of Polylepis forest and surrounding paramo.	3900-4000 m	02°40'S 079°15'W	-2,66666	-79,25	Flowers yellow.
27800530	South America	Ecuador	Azuay		Parque Nacional de Cajas, east of pass. Polylepis incana and P. weberbauerii forest, with Berberis, Monnina, and Gynoxis. Polylepis trunks with mosses and lichens.	3780 m	02°42'S 079°16'W	-2,7	-79,26666	Herb. Sepals green. Petals yellow. Anthers and styles yellow.
2743344	South America	Ecuador	Azuay	Cuenca	Parque Nacional Cajas, km 30 Cuenca-Molleturo. Vegetación a lo largo del carretero.	3670 m	"02°47'11""S 079°12'03""W"	-2,7863889	-79,2008333	Arbusto 2.5 m, densamente blanco-sucio panoso. Brácteas verde claras, panosas. Lígulas amarillas. Flósculos tubulares amarillo cafés, pappus pajizo.
2743344	South America	Ecuador	Azuay		Las Cajas National Park. Paramo on rocky outcrops.	4000 m	02°45'S 079°15'W	-2,75	-79,25	Small tree, 3.5 m tall.
2743344	South America	Ecuador	Azuay	Cuenca	Soldados road, Las Cajas Recreational Area, 3-10 km above Soldados. Grass páramo.	3370-3770 m	02°54'S 079°17'W	-2,9	-79,28333	Shrub, to 4m tall. Phyllaries tan. Flowers bright butter-yellow. Common along road.
2733857	South America	Ecuador	Azuay		Around Laguna Toreadora in Parque Nacional de Cajas, c. 35 km WNW of Cuenca. Polylepis forest and grass paramo.	3950 m	02°46'S 079°13'W	-2,76666	-79,21666	Shrub, ca 1 m tall. Florets light yellow.
2733857	South America	Ecuador	Azuay		Totorococha-Mazan valley, Area Nacional de Recreación CAJAS	3900 m	02°53'S 079°10'W	-2,88333	-79,16666	
2733857	South America	Ecuador	Azuay		Parque Nacional Cajas. Páramo de Soldados. Road Cuenca-San Joaquín-Soldados.  Above Soldados, off road within the Park, km 51.7. Burnt and regenerated páramo.	3680 - 3870 m	"02°53'01""S 079°18'31""W - 02°53'34""S 079°18'36""W"	-2,88361	-79,30861	Shrub 1 m. Densely covered with an ochraceous tomentum. Heads white.
2733857	South America	Ecuador	Azuay		Road Chiquintad-Labrado. North side ending at the dam Presa Chanlud, km 26.9. Distured upper Andean forest and grass páramo.	3340 - 3520 m	"02°41'54""S 079°01'48""W - 02°40'57""S 079°02'03""W"	-2,69833	-79,03	Shrub 1 m, covered with dense gray-white tomentum.
2733857	South America	Ecuador	Azuay		Parque Nacional Cajas. Páramo de Soldados. Road Baños-Soldados-Chaucha, km 34.4. Burnt and grazed grass páramo and cushion plants on wet areas along creek.	3700 m	"02°54'06""S 079°15'40""W"	-2,90166	-79,26111	Shrub 1 m, densely ochraceous-lanose. Flowers yellow.
2733857	South America	Ecuador	Azuay	Cuenca	Parque Nacional Cajas, km 28 redondel Cuenca-Molleturo. Sendero Laguna Patoquinoas, páramo de pajonal y bosque de Polylepis.	3730 m	"02°47'09""S 079°12'18""W"	-2,7858333	-79,205	Arbusto 2 m, tallos, brácteas y envés de las hojas densamente blanco-crema pubescentes, flósculos amarillos.
2733857	South America	Ecuador	Azuay		Las Cajas National Park. Paramo on rocky outcrops.	4000 m	02°45'S 079°15'W	-2,75	-79,25	Shrub, 1.2 m. Growing on bare rock.
2733857	South America	Ecuador	Azuay		Area de Recreación Las Cajas, 2 km W of pass on Cuenca-Molleturo road. Pajonal with small patches of shrubby forest mainly of Polylepis and Gynoxis.	4000 m	02°46'S 078°22'W	-2,76666	-78,36666	Shrub, 2 m. Heads yellow.
2733857	South America	Ecuador	Azuay		Páramo de Soldados, at highest point of road W of Soldados. Bunch grass and cushion paramo, paramo scrub and Polylepis forest.	3700-4000 m	02°57'S 079°18'W	-2,95	-79,3	At road.
2733857	South America	Ecuador	Azuay		Páramo de Cajas, Chuspipuñuna, matorral de Gynoxys	3440 m	"02°48'09""S 079°13'06""W"	-2,8025	-79,21833	arbusto 1 m, flor amarilla
2733857	South America	Ecuador	Azuay		Cerro Soldados (west of Sayausid), below Quinoas	3400 m				Shrub, ca 0.5-0.75m high. Leaves shiny. Corolla yellow.
2733857	South America	Ecuador	Azuay		Parque Nacional Cajas, Laguna Toreadora.	3950 m	"02°46'59""S 079°13'26""W"	-2,783	-79,2239167	Arbusto, envés ocre-tomentoso, flores amarillas.
13803175	South America	Ecuador	Azuay	Cuenca	Area Nacional de Recreación Cajas. Collections made between La Laguna Llaviucu via dirt road to main highway from Cuenca. Mostly Paramo with remnant patches of Montane Wet Forest.	3100 - 3200 m	02°53'S 079°08'W	-2,88333	-79,13333	Terrestrial. Cow pasture.
13803175	South America	Ecuador	Azuay	Cuenca	Area Nacional de Recreación Cajas. Laguna Toreadora and Virgen Machay. Mostly Paramo with remnant Montane Wet Forest.	4000 - 4400 m	02°46'S 079°13'W	-2,76666	-79,21666	Terrestrial herb. Calyx and corolla green.
13803175	South America	Ecuador	Azuay		Parque Nacional Cajas. Road Cuenca-Sayausí-Molleturo, km 38.4. From the pass to the top of ridge north of pass. Páramo vegetation.	4110 - 4350 m	"02°46'38""S 079°14'09""W - 02°46'09""S 079°14'39""W"	-2,77722	-79,23583	Herb, growing in cushion plant. Corolla yellow-green.
13803175	South America	Ecuador	Azuay	Cuenca	Parque Nacional Cajas, km 28 redondel Cuenca-Molleturo. Sendero Laguna Patoquinoas, páramo de pajonal y bosque de Polylepis.	3730 m	"02°47'09""S 079°12'18""W"	-2,7858333	-79,205	Hierba pequeña creciendo entre almohadillas, flores verde-amarillentas.
13803175	South America	Ecuador	Azuay		Cuenca, about 25 km on the road to Cajas. Paramo.	3500 m	02°48'S 079°08'W	-2,8	-79,13333	Herb, until 10 cm tall. Petals yellow green.
27801590	South America	Ecuador	Azuay		Parque Nac. de Las Cajas, rocky crest N of road Soldados - Angas, in pass app. 13 km from Soldados	4050 m	02°53'S 079°17'W	-2,88333	-79,28333	Very low shrubs among rocks, 10-20 cm high
27801590	South America	Ecuador	Azuay	Cuenca	Parque Nacional Cajas, km 28 redondel Cuenca-Molleturo. Sendero izquierdo Laguna Patoquinoas, páramo de pajonal y bosque de Polylepis.	3730 - 3800 m	"02°47'09""S 079°12'18""W - 02°46'58""S 079°12'43""W"	-2,7858333	-79,205	Arbusto 0.5 m, pétalos blancos con tintes rosado oscuros, estambres rojizos, puntas de las ramas punzantes.
27801590	South America	Ecuador	Azuay	Cuenca	Vía San Joaquín-Soldados-Chaucha, km 40.2, (12.8 km desde Soldados). Parque Nacional Cajas, páramo de pajonal.	3950 - 4090 m	"02°54'28""S 079°17'01""W - 02°54'18""S 079°17'18""W"	-2,90777	-79,28361	Arbusto 0.3 m. Frutos rojo morados.
27801590	South America	Ecuador	Azuay		Paramo de Soldados.	3700-4000 m	02°53'S 079°18'W	-2,88333	-79,3	Exposed top. 4000 m.
27801590	South America	Ecuador	Azuay		Páramo de Cajas, Chuspipuñuna, matorral de Gynoxys	3440 m	"02°48'09""S 079°13'06""W"	-2,8025	-79,21833	arbusto 1 m, pétalos blancos
2737073	South America	Ecuador	Azuay		Parque Nacional Cajas. Road Cuena-Sayausí-Molleturo, km 28.9. Around Laguna Patoquinoa, páramo vegetation with scattered Polylepis trees.	3700 - 3870 m	"02°46'56""S 079°12'14""W - 02°47'11""S 079°12'26""W"	-2,78222	-79,20388	Herb with basal rosette of leaves. Leaves densely villous. Corolla yellow greenish.
2737073	South America	Ecuador	Azuay	Cuenca	Parque Nacional Cajas, km 35 Cuenca-Molleturo, Centro de Información, Laguna Toreadora sendero oeste.	3880 - 3890 m	"02°46'56""S 079°13'26""W - 02°46'43""S 079°13'33""W"	-2,7822223	-79,2238889	Hierba 0.45 m, densamente pubescente con tricomas largos, capítulos nutantes, brácteas verde oscuras, flósculos todos ligulados, verde limón, tallos y hojas con tintes morados.
26608478	South America	Ecuador	Azuay	Cuenca	Area Nacional de Recreación Cajas. Laguna Toreadora. Mostly Paramo with remnant montane wet forest.	3800 m	02°46'S 079°13'W	-2,76666	-79,21666	Herb, 10 cm tall.
26608478	South America	Ecuador	Azuay		Around Laguna Toreadora in Parque Nacional de Cajas, c. 35 km WNW of Cuenca. Polylepis forest and grass paramo.	3950 m	02°46'S 079°13'W	-2,76666	-79,21666	Terrestrial.
26608478	South America	Ecuador	Azuay		Páramos El Cajas west of Sayausí and Cuenca. Bunchgrass-páramo, Plantago rigida bog and small lakes.	4100 m	02°50'S 079°12'W	-2,83333	-79,2	
26608478	South America	Ecuador	Azuay		Parque Nacional de Cajas, WNW of Cuenca. Humid depression in grass paramo.	3950 m	02°51'S 079°12'W	-2,85	-79,2	
26608478	South America	Ecuador	Azuay		Parque Nacional de Cajas, WNW of Cuenca. Humid depression in grass paramo.	3950 m	02°51'S 079°12'W	-2,85	-79,2	.
26608478	South America	Ecuador	Azuay		Páramo de Soldados, at highest point of road W of Soldados. Bunch grass and cushion paramo, paramo scrub and Polylepis forest.	3700 - 4000 m	02°57'S 079°18'W	-2,95	-79,3	In paramo bog. Bright red, violet tinged.
26608478	South America	Ecuador	Azuay		Parque Nacional Cajas, Road Cuenca-Sayausí-Molleturo km 29. 5 x 5 m plot. Grass páramo, burned and regenerated. Specimens preserved in 70% alcohol before drying.	3800 m	"02°47'28""S 079°12'06""W"	-2,79111	-79,20166	Herb, stem and apex of leaves dull pink.
26608478	South America	Ecuador	Azuay	Cuenca	"Parque Nacional Cajas, km 35.7 redondel Cuenca-Molleturo, en el paso, sendero Paragüillas; Páramo de pajonal hacia peñasco rocoso."	4100 - 4180 m	"02°46'39""S 079°14'30""W - 02°46'10""S 079°14'41""W"	-2,7775	-79,2416666	Hierba erect, 10-15 cm, rojo-rosado oscura, esporas verde amarillentas.
26608478	South America	Ecuador	Azuay		Laguna Toreadora, Las Cajas. Semihumid paramo dominated by grass tussocks and cushion plants, mainly of the families Asteraceae, Apiaceae and Valerianaceae. Scattered shrubs and Puyas. Soil temp.: 8° C.	3900 m	02°43'S 079°12'W	-2,71666	-79,2	In depressions with running water.
26608478	South America	Ecuador	Azuay		Parque Nacional Cajas. Páramo de Soldados. Road Baños-Soldados-Chaucha, km 34.4. Burnt and grazed grass páramo and cushion plants on wet areas along creek.	3700 m	"02°54'06""S 079°15'40""W"	-2,90166	-79,26111	Herb, leaves pink-red or green with orange tips. Sporangia green.
7800273	South America	Ecuador	Azuay		Parque Nacional Cajas. Páramo de Soldados. Road Baños-Soldados-Chaucha, km 34.4. Burnt and grazed grass páramo and cushion plants on wet areas along creek.	3700 m	"02°54'06""S 079°15'40""W"	-2,90166	-79,26111	Shrub 0.8 m. Flowers bright yellow.
7800273	South America	Ecuador	Azuay	Cuenca	Parque Nacional Cajas, km 32.1 desde redondel Cuenca-Molleturo. Bosque de Polylepis abajo de la casa de información, Laguna La Toreadora.	3880 m	"02°46'56""S 079°13'26""W"	-2,7822223	-79,2238889	Arbusto 0.5 m, pétalos amarillo brillantes.
2702714	South America	Ecuador	Azuay		Laguna Toreadora, Las Cajas. Semihumid paramo dominated by grass tussocks and cushion plants, mainly of the families Asteraceae, Apiaceae and Valerianaceae. Scattered shrubs and Puyas. Soil temp.: 8° C.	3900 m	02°43'S 079°12'W	-2,71666	-79,2	Stem branching to give small cushions. Flowers yellow.
2702714	South America	Ecuador	Azuay		Laguna Toreadora, Las Cajas. Semihumid paramo dominated by grass tussocks and cushion plants, mainly of the families Asteraceae, Apiaceae and Valerianaceae. Scattered shrubs and Puyas. Soil temp.: 8° C.	3900 m	02°43'S 079°12'W	-2,71666	-79,2	Flowers yellow.
2702714	South America	Ecuador	Azuay	Cuenca	Area Nacional de Recreación Cajas. Laguna Toreadora. Mostly Paramo with remnant Montane Wet Forest.	3800 m	02°46'S 079°13'W	-2,76666	-79,21666	Ground rosette. Flowers yellow.
2702714	South America	Ecuador	Azuay		Parque Nacional Cajas. Road Cuenca-Sayausí-Molleturo, km 38.4. From the pass to the top of ridge north of pass. Páramo vegetation.	4110 - 4350 m	"02°46'38""S 079°14'09""W - 02°46'09""S 079°14'39""W"	-2,77722	-79,23583	Herb in rosette. Flowers yellow.
2702714	South America	Ecuador	Azuay		Parque Nacional Cajas. Páramo de Soldados. Road Baños-Soldados-Chaucha, km 34.4. Burnt and grazed grass páramo and cushion plants on wet areas along creek.	3700 m	"02°54'06""S 079°15'40""W"	-2,90166	-79,26111	Rosette-forming herb. Heads sessile, bright yellow.
2702714	South America	Ecuador	Azuay	Cuenca	Parque Nacional Cajas, km 32.1 desde redondel Cuenca-Molleturo. Sendero este alrededor de Laguna Toreadora. Páramo de pajonal.	3850 - 3870 m	"02°46'56""S 079°13'24""W - 02°46'46""S 079°13'18""W"	-2,7822223	-79,2233334	Hierba entre almohadillas. Flósculos amarillos.
2702714	South America	Ecuador	Azuay	Cuenca	Parque Nacional Cajas, Cuenca-Molleturo km 28, sendero Patoquinoas-Totoras. Bosque de Polylepis y pajonales.	3730 - 3800 m	"02°47'09""S 079°12'18""W - 02°40'58""S 079°12'43""W"	-2,7858333	-79,205	Hierba sobre rocas, formando almohadillas, flosculos amarillos.
2702714	South America	Ecuador	Azuay		"Páramo de Cajas, Chuspipuñuna, matorral de Gynoxys; turbera"	3440 m	"02°48'09""S 079°13'06""W"	-2,8025	-79,21833	flor amarilla
26619689	South America	Ecuador	Azuay		Around Laguna Toreadora in Parque Nacional de Cajas, c. 35 km WNW of Cuenca. Polylepis forest and grass paramo.	3950 m	02°46'S 079°13'W	-2,76666	-79,21666	On periodically inundated lake-shore.
26619689	South America	Ecuador	Azuay	Cuenca	Parque Nacional Cajas, km 32.1 desde redondel Cuenca-Molleturo. Sendero este alrededor de Laguna Toreadora. Páramo de pajonal.	3850 - 3870 m	"02°46'56""S 079°13'24""W - 02°46'46""S 079°13'18""W"	-2,7822223	-79,2233334	Hierba en roseta creciendo sumergida, base de las hojas blancas, esporangios gris oscuros o blancos.
26619689	South America	Ecuador	Azuay		Parque Nacional Cajas, Laguna Toreadora.	3950 m	"02°46'59""S 079°13'26""W"	-2,783	-79,2239167	Acuática. Esporas femeninas grises.
26606391	South America	Ecuador	Azuay		Near pass in Parque Nacional las Cajas, W of Cuenca.	4150 m	02°40'S 079°14'W	-2,66666	-79,23333	
26606391	South America	Ecuador	Azuay	Cuenca	Area Nacional de Recreación Cajas. Laguna Toreadora. Mostly Paramo with remnant Montane Wet Forest.	3800 m	02°46'S 079°13'W	-2,76666	-79,21666	Herb, 10 cm tall.
26606391	South America	Ecuador	Azuay	Cuenca	Area Nacional de Recreación Cajas. Laguna Toreadora. Mostly Paramo with remnant Montane Wet Forest.	3800 m	02°46'S 079°13'W	-2,76666	-79,21666	Herb, 10 cm tall.
26606391	South America	Ecuador	Azuay	Cuenca	Area Nacional de Recreación Cajas. Laguna Toreadora and Virgen Machay. Mostly Paramo with remnant Montane Wet Forest.	4000 - 4400 m	02°46'S 079°13'W	-2,76666	-79,21666	Fronds on an elongate rhizome. Growing in rock crevice.
26606391	South America	Ecuador	Azuay		Parque Nacional Cajas. Páramo de Soldados. Road Baños-Soldados-Chaucha, km 34.4. Burnt and grazed grass páramo and cushion plants on wet areas along creek.	3700 m	"02°54'06""S 079°15'40""W"	-2,90166	-79,26111	Fern with ferruginous villous hairs, brown sori.
26606391	South America	Ecuador	Azuay	Cuenca	Parque Nacional Cajas, km 28 redondel Cuenca-Molleturo. Sendero izquierdo Laguna Patoquinoas, páramo de pajonal y bosque de Polylepis.	3730 - 3800 m	"02°47'09""S 079°12'18""W - 02°46'58""S 079°12'43""W"	-2,7858333	-79,205	Helecho terrestre, 0.25 m, frondes verdes con pubescencia amarillenta, soros cafés.
26606391	South America	Ecuador	Azuay		San Joaquín - Soldados road above Soldados. Humid páramo with remnants of Polylepis weberbauerii forest around lakes.	3800 m	02°55'S 079°13'W	-2,91666	-79,21666	
27806115	South America	Ecuador	Azuay		Parque Nacional Cajas. Road Cuenca-Sayausí-Molleturo, km 38.4. From the pass to the top of ridge north of pass. Páramo vegetation.	4110 - 4350 m	"02°46'38""S 079°14'09""W - 02°46'09""S 079°14'39""W"	-2,7772223	-79,2358333	Herb, prostrate. Flowers greenish yellow.
27806115	South America	Ecuador	Azuay		Parque Nacional Cajas, Road Cuenca-Sayausí-Molleturo, above Laguna Toreadora. Grass páramo, burnt and regenerated 5 x 5 m plot. Specimens preserved in 70% alcohol before drying.	4000 m	"02°46'34""S 079°14'16""W"	-2,7761111	-79,2377777	Herb, stems reddish, villous, flowers cream tinged with reddish.
27806115	South America	Ecuador	Azuay	Cuenca	Parque Nacional Cajas, km 28 redondel Cuenca-Molleturo. Sendero Laguna Patoquinoas, páramo de pajonal y bosque de Polylepis.	3730 m	"02°47'09""S 079°12'18""W"	-2,7858333	-79,205	Hierba decumbente, flores amarillo-cremas.
27806115	South America	Ecuador	Azuay	Cuenca	Parque Nacional Cajas, km 35 Cuenca-Molleturo, Centro de Información, Laguna Toreadora sendero oeste.	3880 - 3890 m	"02°46'56""S 079°13'26""W - 02°46'43""S 079°13'33""W"	-2,7822223	-79,2238889	Hierba laxa, tallos morados, pubescente en tallos y hojas, flores verdes.
27806115	South America	Ecuador	Azuay		Around Laguna Toreadora in Parque Nacional de Cajas, c. 35 km WNW of Cuenca. Polylepis forest and grassparamo.	3950 m	02°46'S 079°13'W	-2,76666	-79,21666	
27801673	South America	Ecuador	Azuay	Cuenca	Parque Nacional Cajas, km 32.1 desde redondel Cuenca-Molleturo. Bosque de Polylepis abajo de la casa de información, Laguna La Toreadora.	3880 m	"02°46'56""S 079°13'26""W"	-2,7822223	-79,2238889	Hierba entre almohadillas, flores verde-amarillentas.
27801673	South America	Ecuador	Azuay		Páramo de Cajas, W of Cuenca. Along new road, c. 11 km W of pass. Roadside and grassy slope.	3450 m	02°48'S 079°17'W	-2,8	-79,28333	
2727069	South America	Ecuador	Azuay		Parque Nacional de Cajas, WNW of Cuenca. Humid depression in grass paramo.	3950 m	02°51'S 079°12'W	-2,85	-79,2	Low shrubs to 10-15 cm.
2727069	South America	Ecuador	Azuay	Cuenca	Area Nacional de Recreación Cajas. Laguna Toreadora. Mostly paramo with remnant Montane Wet Forest.	3800 m	02°48'S 079°08'W	-2,8	-79,13333	Shrub, 50 cm tall.
2727069	South America	Ecuador	Azuay		Parque Nacional Cajas. Road Cuenca-Sayausí-Molleturo. At the pass, km 38.4. Grass páramo vegetation.	4110 - 4230 m	"02°46'38""S 079°14'27""W"	-2,77722	-79,24083	Shrub 0.3 m. Leaves densely white pubescent with sticky hairs.
2727069	South America	Ecuador	Azuay		Parque Nacional Cajas. Páramo de Soldados. Road Cuenca-San Joaquín-Soldados.  Above Soldados, off road within the Park, km 51.7. Burnt and regenerated páramo.	3680 - 3870 m	"02°53'01""S 079°18'31""W - 02°53'34""S 079°18'36""W"	-2,88361	-79,30861	Shrub 0.5 m. Heads off-white.
2727069	South America	Ecuador	Azuay		Parque Nacional Cajas. Páramo de Soldados. Road Baños-Soldados-Chaucha, km 34.4. Burnt and grazed grass páramo and cushion plants on wet areas along creek.	3700 m	"02°54'06""S 079°15'40""W"	-2,90166	-79,26111	Shrub 0.5 m. Leaves densely white lanose inside. Lower leaves ferruginous. Heads dirty white.
2727069	South America	Ecuador	Azuay	Cuenca	"Parque Nacional Cajas, km 35.7 redondel Cuenca-Molleturo, en el paso, sendero Paragüillas; Páramo de pajonal hacia peñasco rocoso."	4100 - 4180 m	"02°46'39""S 079°14'30""W - 02°46'10""S 079°14'41""W"	-2,7775	-79,2416666	Arbusto 0.4 m, hojas de la base anaranjadas cobrizo las superiores verde metálico, flores blanco-amarillentas.
2727069	South America	Ecuador	Azuay		San Joaquín - Soldados - Angas, km 36.8 - 37.6. Grass páramo with a few shrubs and swamp area along river Yanuncay.	3590-3600 m	02°56'S 079°16'W	-2,93333	-79,26666	Shrub 0.5 m.
13037051	South America	Ecuador	Azuay		Páramos, in vicinity of Toreador, between Molleturo and Quinoas	3810 - 3930 m	02°47'S 079°18'W	-2,78333	-79,3	
13037051	South America	Ecuador	Azuay		"Area Nacional de Recreación ""Cajas""."	3850 m	02°50'S 079°15'W	-2,83333	-79,25	
13037051	South America	Ecuador	Azuay	Cuenca	Parque Nacional Cajas, km 28 redondel Cuenca-Molleturo. Sendero Laguna Patoquinoas, páramo de pajonal y bosque de Polylepis.	3730 m	"02°47'09""S 079°12'18""W"	-2,7858333	-79,205	Hierba postrada, flores moradas con quilla blanca. Frutos verdes.
13037051	South America	Ecuador	Chimborazo		cerros Yuibug-Pailacajas.	4100 - 4200 m	01°45'S 078°27'W	-1,75	-78,45	
13037051	South America	Ecuador	Azuay		Area de Receación Las Cajas, 6 km W of pass on Cuenca-Molleturo road. Polylepis forest with P. incana, P. sericea and Escallonia myrtilloides.	3800 m	02°40'S 079°23'W	-2,66666	-79,38333	Subshrub. Flowers blue and white. Fruits green to brown.
5502024	South America	Ecuador	Azuay		Paramo de Las Cajas, Lagunas Suerococha, 35 km on Cuenca-Molleturo road mountain 1 km NW of pass.	4050 - 4100 m	02°48'S 079°15'W	-2,8	-79,25	Corolla white.
5502024	South America	Ecuador	Azuay	Cuenca	Area Nacional de Recreación Cajas. Laguna Toreadora. Mostly Paramo with remnant Montane Wet Forest.	3800 m	02°46'S 079°13'W	-2,76666	-79,21666	Rosette. Flowers white.
5502024	South America	Ecuador	Azuay	Cuenca	Area Nacional de Recreación Cajas. Laguna Toreadora and Virgen Machay. Mostly Paramo with remnant Montane Wet Forest.	4000 - 4400 m	02°46'S 079°13'W	-2,76666	-79,21666	Terrestrial cushion-forming herb. Calyx green. Corolla white, tubular with five lobes.
5502024	South America	Ecuador	Azuay		Parque Nacional Cajas. Road Cuenca-Sayausí-Molleturo. At the pass, km 38.4. Grass páramo vegetation.	4110 - 4230 m	"02°46'38""S 079°14'27""W"	-2,77722	-79,24083	Cushion-forming herb. Flowers white, anthers black. Photo.
5502024	South America	Ecuador	Azuay	Cuenca	Parque Nacional Cajas, km 32.1 desde redondel Cuenca-Molleturo. Sendero este alrededor de Laguna Toreadora. Páramo de pajonal.	3850 - 3870 m	"02°46'56""S 079°13'24""W - 02°46'46""S 079°13'18""W"	-2,7822223	-79,2233334	Hierba entre almohadillas. Flores blancas con puntos negros hacia el centro, tubo de las anteras café oscuro.
20301006	South America	Ecuador	Azuay		Parque Nac. Cajas, colecc. en bosque de Polylepis y pajonal.	4000 - 4100 m	02°50'S 079°12'W	-2,83333	-79,2	
20301006	South America	Ecuador	Azuay		Páramo de las Cajas. In the pass.	4000 - 4200 m	02°46'S 079°14'W	-2,76666	-79,23333	Protected among rocks. 4200 m.
20301006	South America	Ecuador	Azuay		Parque Nacional Cajas, Road Cuenca-Sayau?i-Molleturo, km 32 at Laguna Toreadora, 5 x 5 m plot. Rainy day. Grass páramo, burnt and regenerated. Specimens preserved in 70% alcohol before drying.	3900 m	"02°47'01""S 079°13'14""W"	-2,78361	-79,22055	Creeping shrub, margin of leaves ciliate, fruits green.
20301006	South America	Ecuador	Azuay	Cuenca	Parque Nacional Cajas, km 32.1 desde redondel Cuenca-Molleturo. Bosque de Polylepis abajo de la casa de información, Laguna La Toreadora.	3880 m	"02°46'56""S 079°13'26""W"	-2,7822223	-79,2238889	Hierba rastrera sobre musgo, frutos creciendo por abajo de los tallos, verde claros, pecíolos y tallos rojizos.
20301006	South America	Ecuador	Azuay		Parque Nacional Cajas, Laguna La Toreadora.	3905 m	"02°46'59""S 079°13'29""W"	-2,7830556	-79,2247223	Arbusto rastrero entre musgo en bosque de Polylepis, tallos rojo-vino, márgenes de las hojas ciliados.
20301006	South America	Ecuador	Azuay		Parque Nacional Cajas, Laguna Toreadora.	3950 m	"02°46'59""S 079°13'26""W"	-2,783	-79,2239167	Corola y estigma crema, fruto tornándose azul-negro.
20302462	South America	Ecuador	Azuay		Area Nacional de Recreación Cajas. Sayausi-Molleturo road, W of Cuenca. Subpáramo	3910 m	02°53'S 078°59'W	-2,88333	-78,98333	
20302462	South America	Ecuador	Azuay		Parque Nacional de Cajas, WNW of Cuenca. Upper scrub forest along the road.	3450 m	02°52'S 079°09'W	-2,86666	-79,15	Shrub to 3-4 m.
20302462	South America	Ecuador	Azuay		Las Cajas National Park. Paramo on rocky outcrops.	4000 m	02°45'S 079°15'W	-2,75	-79,25	Shrub, 2.5 m. Fruits black.
20302462	South America	Ecuador	Azuay	Cuenca	Area Nacional de Recreación Cajas. Laguna Toreadora. Mostly paramo with remnant Montane Wet Forest.	3800 m	02°48'S 079°08'W	-2,8	-79,13333	Shrub, 2.5 m tall.
20302462	South America	Ecuador	Azuay	Cuenca	Parque Nacional El Cajas.  Laguna Toreador.	3500 m	02°53'S 079°08'W	-2,88333	-79,13333	Shrub, 1.5 m tall. Sterile.
20302462	South America	Ecuador	Azuay		Parque Nacional Cajas. Road Cuena-Sayausí-Molleturo, km 30.2. Very wet páramo around lake at the entrance to trail leading to Laguna Mamamag.	3810 m	"02°47'35""S 079°12'14""W"	-2,79305	-79,20388	Shrub 2 m. Leaves with ocreaceous tomentum below. Young fruits pink to maroon.
20302462	South America	Ecuador	Azuay		Parque Nacional Cajas. Páramo de Soldados. Road Baños-Soldados-Chaucha, km 34.4. Burnt and grazed grass páramo and cushion plants on wet areas along creek.	3700 m	"02°54'06""S 079°15'40""W"	-2,90166	-79,26111	Shrub 1.5 m. Fruits pink. Branches, twigs, underside of leaves and fruits covered with dense ochraceous tomentum.
20302462	South America	Ecuador	Azuay	Cuenca	Parque Nacional Cajas, km 33 Cuenca-Molleturo, sendero alrededor de Laguna Cucheros Páramo de pajonal, suelo húmedo.	3820 - 3870 m	"02°47'33""S 079°12'09""W - 02°47'41""S 079°12'03""W"	-2,7925	-79,2025	Arbusto 2 m, con tomento ocre, hojas densamente ocre panosas en el envés Frutos azul verdosos tornándose morados.
20302462	South America	Ecuador	Azuay		Páramo de Cajas, Chuspipuñuna, matorral de Gynoxys	3440 m	"02°48'09""S 079°13'06""W"	-2,8025	-79,21833	arbusto 1.8, flor blanca
20302462	South America	Ecuador	Azuay		Paramo de Las Cajas, E slope.	3800 m	02°45'S 079°10'W	-2,75	-79,16666	
20302462	South America	Ecuador	Azuay		Chiquintad-Represa El Labrado.	2790 - 3425 m	"02°48'12""S 079°00'28""W - 02°43'44""S 079°04'25""W"	-2,8033889	-79,0078333	Arbusto 2 m, tomento ocre amarillento, hipanto ocre con tintes rosados, pétalos blanco sucio, estilo rosado, estigma crema.
20302462	South America	Ecuador	Azuay		Parque Nacional Cajas, Laguna La Toreadora.	3905 m	"02°46'59""S 079°13'29""W"	-2,7830556	-79,2247223	Arbusto 2 m, tomento ocre, hipanto con tintes rosados, pétalos y estigma crema, estambres crema con tintes rosados.
20302462	South America	Ecuador	Azuay		Parque Nacional Cajas, Laguna Toreadora.	3950 m	"02°46'59""S 079°13'26""W"	-2,783	-79,2239167	Envés ocre-tomentoso, corola y estigma crema.
25900130	South America	Ecuador	Azuay		Laguna Toreadora, Las Cajas. Semihumid paramo dominated by grass tussocks and cushion plants, mainly of the families Asteraceae, Apiaceae and Valerianaceae. Scattered shrubs and Puyas. Soil temp.: 8° C.	3900 m	02°43'S 079°12'W	-2,71666	-79,2	Shrubs about one meter tall. Flowers blue.
25900130	South America	Ecuador	Azuay		Around Laguna Toreadora in Parque Nacional de Cajas, c. 35 km WNW of Cuenca. Polylepis forest and grass paramo.	3950 m	02°46'S 079°13'W	-2,76666	-79,21666	Erect, slender subshrub, ca 1 m tall. Corolla dark blue. Fruits reddish.
25900130	South America	Ecuador	Azuay	Cuenca	Area Nacional de Recreación Cajas. Laguna Toreadora and Virgen Machay. Mostly Paramo with remnant Montane Wet Forest.	4000 - 4400 m	02°46'S 079°13'W	-2,76666	-79,21666	Shrub, 1 m tall. Seeds elliptic and red. Corolla mostly blue with yellow keel.
25900130	South America	Ecuador	Azuay		Parque Nacional Cajas, Road Cuenca-Sayausí-Molleturo km 29. 5 x 5 m plot. Grass páramo, burned and regenerated. Specimens preserved in 70% alcohol before drying.	3800 m	"02°47'28""S 079°12'06""W"	-2,79111	-79,20166	Shrub 0.5 m, flowers orange-yellow.
25900130	South America	Ecuador	Azuay	Cuenca	Parque Nacional Cajas, km 32.1 desde redondel Cuenca-Molleturo. Sendero este alrededor de Laguna Toreadora. Páramo de pajonal.	3850 - 3870 m	"02°46'56""S 079°13'24""W - 02°46'46""S 079°13'18""W"	-2,7822223	-79,2233334	Arbusto 1.5 m, flores moradas, quilla amarilla. Frutos café-rojizos.
25900130	South America	Ecuador	Azuay		Parque Nacional de Cajas, east of pass. Polylepis incana and P. weberbauerii forest, with Berberis, Monnina, and Gynoxis. Polylepis trunks with mosses and lichens.	3780 m	02°42'S 079°16'W	-2,7	-79,26666	Shrub 2 m high. Petals blue and yellow.
15000089	South America	Ecuador	Azuay		Laguna Toreadora, Las Cajas. Semihumid paramo dominated by grass tussocks and cushion plants, mainly of the families Asteraceae, Apiaceae and Valerianaceae. Scattered shrubs and Puyas. Soil temp.: 8° C.	3900 m	02°43'S 079°12'W	-2,71666	-79,2	Submerged in lake, forming dense mats.
15000089	South America	Ecuador	Azuay		Las Cajas: Near Laguna Llaviuco. Montane forest and disturbed areas along the road. Soil temp.: 10° C.	3100 - 3200 m	02°49'S 079°11'W	-2,81666	-79,18333	Forming dense mats on shallow ground in the river.
15000089	South America	Ecuador	Azuay		Parque Nacional Cajas. Road Cuena-Sayausí-Molleturo, km 28.9. Around Laguna Patoquinoa, páramo vegetation with scattered Polylepis trees.	3700 - 3870 m	"02°46'56""S 079°12'14""W - 02°47'11""S 079°12'26""W"	-2,78222	-79,20388	Aquatic, immersed in lake.
15000089	South America	Ecuador	Azuay	Cuenca	Parque Nacional Cajas, km 33 Cuenca-Molleturo, sendero alrededor de Laguna Cucheros Páramo de pajonal, suelo húmedo.	3820 - 3870 m	"02°47'33""S 079°12'09""W - 02°47'41""S 079°12'03""W"	-2,7925	-79,2025	Hierba acuática, sumergida. Porción reproductiva fuera del agua, hojas rojizas. Flores diminutas verdes.
15000089	South America	Ecuador	Azuay		Lagunas del Parque Nacional Cajas. Sector Toreadora	3810 m	"02°48'40""S 079°14'37""W"	-2,81111	-79,24361	Macrófita enraizada sumergida, creciendo al rededor de la laguna en sustrato fangoso. Se presenta dominante en el lugar.
15000089	South America	Ecuador	Azuay		Lagunas del Parque Nacional Cajas. Sector Toreadora	3810 m	"02°48'40""S 079°14'37""W"	-2,81111	-79,24361	Macrófita enraizada sumergida, creciendo al rededor de la laguna en forma dominante.
15000089	South America	Ecuador	Azuay		Parque Nacional Cajas, Laguna de Llaviuco.	3170 m	"02°50'38""S 079°08'37""W"	-2,8439722	-79,1437194	Acuática, hojas reproductivas suculentas rojizas.
50077093	South America	Ecuador	Azuay		Páramo de las Cajas W of Cuenca.	4000 - 4150 m	02°47'S 079°14'W	-2,78333	-79,23333	Rather low tufts, at pond.
50077093	South America	Ecuador	Azuay		Páramo de las Cajas W of Cuenca.	4000 - 4150 m	02°47'S 079°14'W	-2,78333	-79,23333	Open area in Polylepis forest.
50077093	South America	Ecuador	Azuay		Páramo de las Cajas. In the pass.	4000 - 4200 m	02°46'S 079°14'W	-2,76666	-79,23333	Dry rock-shelf. 4200 m.
50077093	South America	Ecuador	Azuay	Cuenca	Area Nacional de Recreación Cajas. Laguna Toreadora. Mostly Paramo with remnant Montane Wet Forest.	3800 m	02°46'S 079°13'W	-2,76666	-79,21666	2 m tall.
50077093	South America	Ecuador	Azuay	Cuenca	Parque Nacional Cajas, km 32.1 desde redondel Cuenca-Molleturo. Sendero este alrededor de Laguna Toreadora. Páramo de pajonal.	3850 - 3870 m	"02°46'56""S 079°13'24""W - 02°46'46""S 079°13'18""W"	-2,7822223	-79,2233334	Hierba rígida 1 m, espigas pajizas.
50077093	South America	Ecuador	Azuay		Cajas National Park, lower Loricaria spp. superp·ramo with scattered bunchgrasses and upper superp·ramo vegetation of the mountain ridge to the S of Cerro Parag¸llas (4410 m a.s.l., ca 1.5 km to the N of the mountain pass of the road Cuenca - Miguir).	4250-4400 m	01°45'S 078°27'W	-1,75	-78,45	
19600568	South America	Ecuador	Azuay		Parque Nacional Cajas. Road Cuenca-Sayausí-Molleturo, km 38.4. From the pass to the top of ridge north of pass. Páramo vegetation.	4110 - 4350 m	"02°46'38""S 079°14'09""W - 02°46'09""S 079°14'39""W"	-2,7772223	-79,2358333	Cushion-forming herb growing on sandy soil on top of ridge. Leaves densely pubescent. Calyx green with purple spots. Corolla violet with whitish base. Stigmas pink. Staminal tube white, anthers brown.
19600568	South America	Ecuador	Azuay		Cajas. Parque Nacional Cajas, Road Cuenca-Sayausí-Molleturo km 36. Trail to Paragüillas, at the pass. Grass páramo, disturbed, up to rocky and sandy ridge. Specimens preserved in 70% alcohol before drying.	4100 - 4440 m	"02°46'19""S 079°14'37""W - 02°45'35""S 079°14'46""W"	-2,77194	-79,24361	Cushion-mat forming creeping herb, densely lanose, flowers with densely light green pubescent calyx, corolla violet, greenish-white at center, column white, anthers yellow. Growing on sandy, rocky soil on ridge.
19600568	South America	Ecuador	Azuay	Cuenca	"Parque Nacional Cajas, km 35.7 redondel Cuenca-Molleturo, en el paso, sendero Paragüillas; Páramo de pajonal hacia peñasco rocoso."	4100 - 4180 m	"02°46'39""S 079°14'30""W - 02°46'10""S 079°14'41""W"	-2,7775	-79,2416666	"Hierba acaulescente, creciendo sobre rocas, formando almohadillas suaves; hojas densamente blanco pubescentes de aspecto grisáceo; cáliz verde con márgenes y nervio principal morados; base de los pétalos blanco-verdosa, parte expuesta lila intenso, columna blanco verdosa, anteras amarillas, estigmas amarillos-claros. Frutos carpidios, semillas cafés."
2738138	South America	Ecuador	Azuay	Cuenca	Parque Nacional Cajas, km 32.1 desde redondel Cuenca-Molleturo. Sendero este alrededor de Laguna Toreadora. Páramo de pajonal.	3850 - 3870 m	"02°46'56""S 079°13'24""W - 02°46'46""S 079°13'18""W"	-2,7822223	-79,2233334	Hierba 25 cm, hojas en roseta pubescente, escapo morado, inflorescencia con brácteas verde claras con puntas moradas, flósculos del radio blancos, flósculos del disco amarillos.
2738138	South America	Ecuador	Azuay		Parque Nacional Cajas, Laguna Toreadora.	3950 m	"02°46'59""S 079°13'26""W"	-2,783	-79,2239167	Lígulas blancas, flores del centro amarillas.
29202277	South America	Ecuador	Azuay		Near pass in Parque Nacional las Cajas, W of Cuenca.	4150 m	02°40'S 079°14'W	-2,66666	-79,23333	
29202277	South America	Ecuador	Azuay	Cuenca	Area Nacional de Recreación Cajas. Laguna Toreadora and Virgen Machay. Mostly Paramo with remnant Montane Wet Forest.	4000 - 4400 m	02°46'S 079°13'W	-2,76666	-79,21666	Small herb growing on eroded trail side. Calyx dark red. Corolla tubular with five red lobes.
29202277	South America	Ecuador	Azuay		Parque Nacional Cajas. Road Cuenca-Sayausí-Molleturo. At the pass, km 38.4. Grass páramo vegetation.	4110 - 4230 m	"02°46'38""S 079°14'27""W"	-2,77722	-79,24083	Herb growing on rocks. Calyx maroon-red. Corolla dark pink-red.
29202277	South America	Ecuador	Azuay	Cuenca	Parque Nacional Cajas, km 35.7 redondel Cuenca-Molleturo, en el paso, sendero Paraqüillas ca. 1.5 km hacia Cerro Amarillo. Páramo con almohadillas de Plantago rigida, Chuquiraga jussieu y Loricaria.	4180 - 4260 m	"02°46'10""S 079°14'41""W - 02°45'52""S 079°14'46""W"	-2,7694445	-79,2447222	Hierba 12 cm, tallos morados, envés de las hojas lila, haz con tricomas escariosos, pedicelo y cáliz café morados, corola rojo-rosado oscura.
29202277	South America	Ecuador	Azuay		Las Cajas. Road from the refugio to Migüir, about 6 km from the refugio. Small patches of Polylepis forest and surrounding paramo.	3900-4000 m	02°40'S 079°15'W	-2,66666	-79,25	Flowers red with the inside of the tube yellow.
23700365	South America	Ecuador	Azuay	Cuenca	Parque Nacional Cajas, km 28 redondel Cuenca-Molleturo. Sendero Laguna Patoquinoas, páramo de pajonal y bosque de Polylepis.	3730 m	"02°47'09""S 079°12'18""W"	-2,7858333	-79,205	Hierba decumbente, flores amarillas con líneas anaranjadas.
23700365	South America	Ecuador	Azuay		Las Cajas: Near Laguna Llaviuco. Montane forest and disturbed areas along the road. Soil temp.: 10° C.	3100-3200 m	02°49'S 079°11'W	-2,81666	-79,18333	Growing along the road. Flowers yellow.
23700365	South America	Ecuador	Azuay		Cuenca, about 25 km on the road to Cajas. Paramo.	3500 m	02°48'S 079°08'W	-2,8	-79,13333	Herb, until 25 cm tall. Creeping. Petals yellow with red veins.
25513101	South America	Ecuador	Azuay		Around Laguna Toreadora in Parque Nacional de Cajas, c. 35 km WNW of Cuenca. Polylepis forest and grass paramo.	3950 m	02°46'S 079°13'W	-2,76666	-79,21666	
25513101	South America	Ecuador	Azuay	Cuenca	Area Nacional de Recreación Cajas. Laguna Toreadora. Mostly paramo with remnant Montane Wet Forest.	3800 m	02°48'S 079°08'W	-2,8	-79,13333	Herb, 15 cm tall.
25513101	South America	Ecuador	Azuay	Cuenca	Parque Nacional Cajas, km 35 Cuenca-Molleturo, Centro de Información, Laguna Toreadora sendero oeste.	3880 - 3890 m	"02°46'56""S 079°13'26""W - 02°46'43""S 079°13'33""W"	-2,7822223	-79,2238889	Hierba densamente pubescente, bases de los hojas teñidas de lila, espigas moradas, frutos verdes.
25513101	South America	Ecuador	Azuay	Cuenca	Parque Nacional Cajas, Cuenca-Molleturo km 28, sendero Patoquinoas-Totoras. Bosque de Polylepis y pajonales.	3730 - 3800 m	"02°47'09""S 079°12'18""W - 02°40'58""S 079°12'43""W"	-2,7858333	-79,205	Pastos en grupos, densamente seríceos. Escapos morados flores verde-cremas.
25513101	South America	Ecuador	Azuay		Cuenca-Soldados road, Las Cajas Recreational Area, 3-10 km above Soldados.	3370-3770 m	02°54'S 079°17'W	-2,9	-79,28333	Grass páramo. Herb.
25513101	South America	Ecuador	Azuay		Cajas National Park, Cuenca-Molleturo road near pass. Found in rocky places.	3600-4200 m				
25513101	South America	Ecuador	Azuay		Parque Nacional Cajas, sendero a Lagunas Unidas.	3805 m	"02°47'06""S 079°12'20""W"	-2,7849444	-79,2055	Hierba verde azulada.
24200022	South America	Ecuador	Azuay	Cuenca	Carretera Cuenca-Area de Recreación Cajas, colecciones en potrero, bosque secundario y alrededores de la laguna de la localidad denominada Surrucuchu, sector SO de Cuenca.	3000 - 3250 m	"02°48'14""S 079°20'30""W"	-2,8038889	-79,3416666	
24200022	South America	Ecuador	Azuay		Las Cajas: Near Laguna Llaviuco. Montane forest and disturbed areas along the road. Soil temp.: 10° C.	3100 - 3200 m	02°49'S 079°11'W	-2,81666	-79,18333	Wine growing in clearings.
24200022	South America	Ecuador	Azuay	Cuenca	Parque Nacional Cajas, Cuenca-Molleturo km 28. Cajas, Laguna Toreadora, sendero oeste en bosque de Polylepis y páramo de pajonal km 32.1.	3850 m	"02°46'56""S 079°13'24""W"	-2,7822223	-79,2233334	Bejuco sobre Polylepis, brácteas, tendrilos y tubo verdes con tintes lilas. Tépalos externos rosados con tintes morados, nervio morado, tépalos internos rosados.
24200022	South America	Ecuador	Azuay		Río Mazan, E slopes of Las Cajas. Secondary forest dominated by Weinmannia fagaroides, Escallonia myrtelloides, Myrcianthes and some Lauraceae.	3050 - 3150 m	02°45'S 079°10'W	-2,75	-79,1666667	"Vine. Bracts green with redish green. Hypanthium green, upper part redish green, inside white. Sepals and petals light red; corona with purple apex; androgynophore and filaments white; anthers yellowish green; ovary green, sutures dark green. Fruits dark green with white spots; sutures blackish green; arillus white in immature fruits."
29206498	South America	Ecuador	Azuay		Páramo de las Cajas W of Cuenca.	4000 - 4150 m	02°47'S 079°14'W	-2,78333	-79,23333	
29206498	South America	Ecuador	Azuay		Around Laguna Toreadora in Parque Nacional de Cajas, c. 35 km WNW of Cuenca. Polylepis forest and grass paramo.	3950 m	02°46'S 079°13'W	-2,76666	-79,21666	Stems and calyx purple. Corolla violet-red.
29206498	South America	Ecuador	Azuay	Cuenca	Area Nacional de Recreación Cajas. Laguna Toreadora and Virgen Machay. Mostly Paramo with remnant Montane Wet Forest.	4000 - 4400 m	02°46'S 079°13'W	-2,7666667	-79,2166667	Terrestrial herb. Leaves mostly green with purple rachis. Stem mostly purple. Corolla purple.
29206498	South America	Ecuador	Azuay	Cuenca	Parque Nacional Cajas, km 32.1 desde redondel Cuenca-Molleturo. Sendero este alrededor de Laguna Toreadora. Páramo de pajonal.	3850 - 3870 m	"02°46'56""S 079°13'24""W - 02°46'46""S 079°13'18""W"	-2,7822223	-79,2233334	Hierba 25 cm con tintes rosados en tallos, hojas y brácteas. Corola rosado oscura.
2733350	South America	Ecuador	Azuay		Parque Nacional Cajas. Road Cuena-Sayausí-Molleturo, km 30.2. Very wet páramo around lake at the entrance to trail leading to Laguna Mamamag.	3810 m	"02°47'35""S 079°12'14""W"	-2,79305	-79,20388	Shrub 1 m. Flowers white, brown stigmas.
2733350	South America	Ecuador	Azuay	Cuenca	Parque Nacional Cajas, km 33 Cuenca-Molleturo, sendero alrededor de Laguna Cucheros Páramo de pajonal, suelo húmedo.	3820 - 3870 m	"02°47'33""S 079°12'09""W - 02°47'41""S 079°12'03""W"	-2,7925	-79,2025	Arbusto 2 m, lígulas cremas, flósculos del centro amarillo limón.
2733350	South America	Ecuador	Azuay		Carretera Cuenca-Sayausi-Area de Recreación Cajas, área de colecciones Guabidula a 18 Km aprox. de Cuenca.	3400 - 3500 m	"02°48'00""S 079°14'24""W"	-2,8	-79,24	Arbusto de 80 cm. capítulos amarillos.
2733350	South America	Ecuador	Azuay		Páramo de Cajas, Chuspipuñuna, matorral de Gynoxys	3440 m	"02°48'09""S 079°13'06""W"	-2,8025	-79,21833	arbusto 2 m, flores amarillas
2733432	South America	Ecuador	Azuay		Parque Nacional de Cajas, WNW of Cuenca. Upper scrub forest along the road.	3450 m	02°52'S 079°09'W	-2,86666	-79,15	Shrub 1 m. Flowers yellow.
2733432	South America	Ecuador	Azuay		Cuenca, about 25 km on the road to Cajas. Paramo.	3500 m	02°48'S 079°08'W	-2,8	-79,13333	Herb, until 30 cm tall. No ray flowers. Disc flowers yellow.
2733432	South America	Ecuador	Azuay		Laguna Toreadora, Las Cajas. Semihumid paramo dominated by grass tussocks and cushion plants, mainly of the families Asteraceae, Apiaceae and Valerianaceae. Scattered shrubs and Puyas. Soil temp.: 8° C.	3900 m	02°43'S 079°12'W	-2,71666	-79,2	Shrub to 1 m. tall. Flowers yellow.
2733432	South America	Ecuador	Azuay	Cuenca	Area Nacional de Recreación Cajas. Laguna Toreadora. Mostly paramo with remnant Montane Wet Forest.	3800 m	02°48'S 079°08'W	-2,8	-79,13333	Shrub, 80 cm tall. Flowers yellow.
2733432	South America	Ecuador	Azuay		Parque Nacional Cajas. Road Cuenca-Sayausí-Molleturo. At the pass, km 38.4. Grass páramo vegetation.	4110 - 4230 m	"02°46'38""S 079°14'27""W"	-2,77722	-79,24083	Shrub 1 m. Heads yellow.
2733432	South America	Ecuador	Azuay		Parque Nacional Cajas. Páramo de Soldados. Road Baños-Soldados-Chaucha, km 34.4. Burnt and grazed grass páramo and cushion plants on wet areas along creek.	3700 m	"02°54'06""S 079°15'40""W"	-2,90166	-79,26111	Shrub 1.5 m. Flowers bright yellow.
2733432	South America	Ecuador	Azuay		Parque Nacional Cajas, Road Cuenca-Sayausí-Molleturo, above Laguna Toreadora. Grass páramo, burnt and regenerated 5 x 5 m plot. Specimens preserved in 70% alcohol before drying.	4000 m	"02°46'34""S 079°14'16""W"	-2,77611	-79,23777	Shrub 1 m, florets yellow.
2733432	South America	Ecuador	Azuay	Cuenca	Parque Nacional Cajas, km 30.3 Cuenca-Molleturo, sendero a Lagunas Burines, páramo de pajonal.	3900 - 3940 m	"02°47'22""S 079°12'55""W - 02°47'51""S 079°13'06""W"	-2,7894444	-79,2152778	Arbusto 0.8 m. Hojas verde-grisáceas con tonos azules brácteas con ápices morados. Flósculos amarillos, con olor fuerte.
2733432	South America	Ecuador	Azuay		Las Cajas National Park. Paramo on rocky outcrops.	4000 m	02°45'S 079°15'W	-2,75	-79,25	Shrub, 1.5 m. Flowers yellow.
2733432	South America	Ecuador	Azuay		Area de Recreación Las Cajas, just W of pass on Cuenca-Molleturo road.	4100 m	02°45'S 079°20'W	-2,75	-79,33333	Shrub, to 1 m. Heads yellow.
2733432	South America	Ecuador	Azuay		Parque Nacional de Cajas. Páramo in the pass.	4090-4150 m	00°47'S 079°14'W	-0,78333	-79,23333	Shrub 0.75 m high. Inflorescence yellow.
2733432	South America	Ecuador	Azuay		Parque Nacional Cajas, Laguna Toreadora.	3950 m	"02°46'59""S 079°13'26""W"	-2,783	-79,2239167	Arbusto, cabezuelas amarillo-limón, hojas verde-azualadas.
2707362	South America	Ecuador	Azuay		Shrub near the river on the road from Cuenca to Cajas. Mountain forest.	3100 m	02°49'S 078°08'W	-2,81666	-78,13333	Herb, until 1 m tall. Ray flowers blue. Disc flowers yellow at base. Tip dark blue. Stigma white.
2707362	South America	Ecuador	Azuay		10 km NW of Cuenca. Part of Cajas. Mountain forest at Laguna.	3000 m	02°49'S 079°10'W	-2,81666	-79,16666	Herb, up to 50 cm tall. Petals blue. Growing in humid area.
2707362	South America	Ecuador	Azuay		Road Chiquintad-Labrado. North side ending at the dam Presa Chanlud, km 26.9. Distured upper Andean forest and grass páramo.	3340 - 3520 m	"02°41'54""S 079°01'48""W - 02°40'57""S 079°02'03""W"	-2,69833	-79,03	Herb. Leaves with spiny-toothed margins. Heads with green bracts and light violet-blue corollas.
2707362	South America	Ecuador	Azuay		Cajas. Parque Nacional Cajas, Road Cuenca-Sayausí-Molleturo km 36. Trail to Paragüillas, at the pass. Grass páramo, disturbed, up to rocky and sandy ridge. Specimens preserved in 70% alcohol before drying.	4100 - 4440 m	"02°46'19""S 079°14'37""W - 02°45'35""S 079°14'46""W"	-2,77194	-79,24361	Acaulescent rosette-forming herb growing in sand at ridge. Leaves, bracteoles and outer inflorescence bracts coarse ciliate. Inflorescence strigose, nodding, bracts purplish, ligules violet becoming lighter toward center, pappus of florets olive-green, anther tube yellow, stigmas white.
2707362	South America	Ecuador	Azuay	Cuenca	Parque Nacional Cajas, km 28 redondel Cuenca-Molleturo. Sendero izquierdo Laguna Patoquinoas, páramo de pajonal y bosque de Polylepis.	3730 - 3800 m	"02°47'09""S 079°12'18""W - 02°46'58""S 079°12'43""W"	-2,78583	-79,205	Hierba con hojas en roseta basal, coriáceas, ásperas, márgenes espinosas, flósculos lila-celestes.
50066293	South America	Ecuador	Azuay		Cuenca, about 25 km on the road to Cajas. Paramo.	3500 m	02°48'S 079°08'W	-2,8	-79,13333	Stem woody. Flowers bell-shaped, white.
50066293	South America	Ecuador	Azuay		Laguna Toreadora, Las Cajas. Semihumid paramo dominated by grass tussocks and cushion plants, mainly of the families Asteraceae, Apiaceae and Valerianaceae. Scattered shrubs and Puyas. Soil temp.: 8° C.	3900 m	02°43'S 079°12'W	-2,71666	-79,2	Fruits red.
50066293	South America	Ecuador	Azuay		Las Cajas. Small isolated patches with Polylepis forest near Laguna Toreadora. Soil temp.: 8° C.	3900 m	02°43'S 079°12'W	-2,71666	-79,2	
50066293	South America	Ecuador	Azuay		Around Laguna Toreadora in Parque Nacional de Cajas, c. 35 km WNW of Cuenca. Polylepis forest and grass paramo.	3950 m	02°46'S 079°13'W	-2,76666	-79,21666	Low shrub. Pedicels and calyx pink. Corolla white.
50066293	South America	Ecuador	Azuay	Cuenca	Area Nacional de Recreación Cajas. Laguna Toreadora. Mostly paramo with remnant Montane Wet Forest.	3800 m	02°48'S 079°08'W	-2,8	-79,1333333	Shrub, 20 cm tall. Flowers pinkish-white.
50066293	South America	Ecuador	Azuay		Parque Nacional Cajas. Road Cuenca-Sayausí-Molleturo, beyond the pass. Km 47.8. Páramo vegetation.	3720 m	"02°47'56""S 079°18'17""W"	-2,7988889	-79,3047222	Shrub 0.4 m. Flowers white, fruits light green turning white, tinged with dark pink.
50066293	South America	Ecuador	Azuay		Parque Nacional Cajas. Páramo de Soldados. Road Baños-Soldados-Chaucha, km 34.4. Burnt and grazed grass páramo and cushion plants on wet areas along creek.	3700 m	"02°54'06""S 079°15'40""W"	-2,90166	-79,26111	Creeping shrub 0.5 m. Corolla white. Fruits purple-black.
50066293	South America	Ecuador	Azuay	Cuenca	Parque Nacional Cajas km 33 Cuenca-Molleturo. Entrada a Laguna Cucheros Páramo de pajonal con restos de Polylepis.	3820 m	"02°47'26""S 079°12'04""W - 02°47'27""S 079°11'55""W"	-2,7905555	-79,2011111	Arbusto rastrero. Flores urceoladas, blancas con tintes rosados.
18300017	South America	Ecuador	Azuay		About 5 km NW of Sayausí on road to Cajas. Secondary cloud forest and mountain scrub along road.	3000 m	02°50'S 079°07'W	-2,83333	-79,11666	In seepage. Corolla violet.
18300017	South America	Ecuador	Azuay		Shrub near the river on the road from Cuenca to Cajas. Mountain forest.	3100 m	02°49'S 078°08'W	-2,81666	-78,13333	Herb, 5 cm tall. Petals light violet. Center of flowers white.
18300017	South America	Ecuador	Azuay	Cuenca	Area Nacional de Recreación Cajas. Collections made between La Laguna Llaviucu via dirt road to main highway to Cuenca. Mostly Paramo with remnant patches of Montane Wet Forest.	3100 - 3200 m	02°53'S 079°08'W	-2,88333	-79,13333	Terrestrial herb. Corolla blue.
18300017	South America	Ecuador	Azuay		Parque Nacional Cajas. Road Cuena-Sayausí-Molleturo, km 28.9. Around Laguna Patoquinoa, páramo vegetation with scattered Polylepis trees.	3700 - 3870 m	"02°46'56""S 079°12'14""W - 02°47'11""S 079°12'26""W"	-2,78222	-79,20388	Herb with basal rosette of leaves. Corolla violet. Growing on vertical soil under bunch grass.
18300017	South America	Ecuador	Azuay	Cuenca	Parque Nacional Cajas, km 32.1 desde redondel Cuenca-Molleturo. Sendero este alrededor de Laguna Toreadora. Páramo de pajonal.	3850 - 3870 m	"02°46'56""S 079°13'24""W - 02°46'46""S 079°13'18""W"	-2,7822223	-79,2233334	"Hierba ""carnivora"", hojas con tintes café-morados, flores moradas, base de la quilla con rayas más oscuras y la punta verde."
25200077	South America	Ecuador	Azuay	Cuenca	Parque Nacional Cajas km 33 Cuenca-Molleturo. Entrada a Laguna Cucheros Páramo de pajonal con restos de Polylepis.	3820 m	"02°47'26""S 079°12'04""W - 02°47'27""S 079°11'55""W"	-2,7905555	-79,2011111	Hierba acaulescente, pubescente. Escapo café-morado, cáliz con tintes morados.
25200077	South America	Ecuador	Azuay	Cuenca	Parque Nacional Cajas, km 33 Cuenca-Molleturo, alrededor de la laguna Cucheros, páramo de pajonal, suelo húmedo.	3820 - 3870 m	"02°47'33""S 079°12'03""W - 02°47'41""S 079°12'09""W"	-2,7925	-79,2008333	Hierba acaulescente, 0.4 m, flores cafés.
25200233	South America	Ecuador	Azuay	Cuenca	Parque Nacional Cajas, km 28 redondel Cuenca-Molleturo. Sendero Laguna Patoquinoas, páramo de pajonal y bosque de Polylepis.	3730 m	"02°47'09""S 079°12'18""W"	-2,7858333	-79,205	Hierba formando almohadillas, escapos verde-amarillentos.
23508782	South America	Ecuador	Azuay	Cuenca	Parque Nacional Cajas, Cuenca-Molleturo km 28, sendero Patoquinoas-Totoras. Bosque de Polylepis y pajonales.	3730 - 3800 m	"02°47'09""S 079°12'18""W - 02°40'58""S 079°12'43""W"	-2,7858333	-79,205	Hierba en grupos en rocas. Flores café-rojizas con màrgenes verde claros.
27800836	South America	Ecuador	Azuay		Las Cajas National Park. Wet paramo near roadside.	3500 m	02°50'S 079°12'W	-2,83333	-79,2	Tree, 4 m tall.
27800836	South America	Ecuador	Azuay		Parque Nacional de Cajas, WNW of Cuenca. Upper scrub forest along the road.	3450 m	02°52'S 079°09'W	-2,86666	-79,15	Trees to 5-7 m.
27800836	South America	Ecuador	Azuay		Parque Nacional de Cajas, WNW of Cuenca. Upper scrub forest along the road.	3450 m	02°52'S 079°09'W	-2,86666	-79,15	Tree to 5 m.
27800836	South America	Ecuador	Azuay		Las Cajas. Small isolated patches with Polylepis forest near Laguna Toreadora. Soil temp.: 8° C.	3900 m	02°43'S 079°12'W	-2,7166667	-79,2	Dominating tree.
27800836	South America	Ecuador	Azuay		Páramo de las Cajas W of Cuenca.	4000 - 4150 m	02°47'S 079°14'W	-2,78333	-79,23333	6 m high tree.
27800836	South America	Ecuador	Azuay		Páramo de las Cajas W of Cuenca.	4000 - 4150 m	02°47'S 079°14'W	-2,7833333	-79,2333333	6 m high tree at alt. 4150 m.
27800836	South America	Ecuador	Azuay		Páramo de las Cajas W of Cuenca.	4000 - 4150 m	02°47'S 079°14'W	-2,78333	-79,23333	Young plants in open understorey of forest. Runner- shots for propagation.
27800836	South America	Ecuador	Azuay		Páramo de las Cajas W of Cuenca.	4000 - 4150 m	02°47'S 079°14'W	-2,7833333	-79,2333333	12-14 m high tree in forest remains at alt. 4000 m.
27800836	South America	Ecuador	Azuay		Páramo de las Cajas W of Cuenca.	4000 - 4150 m	02°47'S 079°14'W	-2,78333	-79,23333	2 m high shrub in under-storey.
27800836	South America	Ecuador	Azuay		Páramo de las Cajas W of Cuenca.	4000 - 4150 m	02°47'S 079°14'W	-2,78333	-79,23333	3850 m.
27800836	South America	Ecuador	Azuay		Páramo de las Cajas W of Cuenca.	4000 - 4150 m	02°47'S 079°14'W	-2,78333	-79,23333	3600 m.
27800836	South America	Ecuador	Azuay		Páramo de las Cajas W of Cuenca.	4000 - 4150 m	02°47'S 079°14'W	-2,78333	-79,23333	Samples from 4 different trees.
27800836	South America	Ecuador	Azuay		3-5 km W of pass at Las Cajas, W of Cuenca.	3800 - 4000 m	02°40'S 079°14'W	-2,66666	-79,23333	
27800836	South America	Ecuador	Azuay		Páramo de Soldados SW of Cuenca.	3700 - 3800 m	02°53'S 079°17'W	-2,88333	-79,28333	
27800836	South America	Ecuador	Azuay		Páramo de Soldados SW of Cuenca.	3700 - 3800 m	02°53'S 079°17'W	-2,88333	-79,28333	Deviating type, found a few specimens, dark olive green on underside of Ceaves.
27800836	South America	Ecuador	Azuay		Páramo de Soldados, SW of Cuenca.	3750 - 3850 m	02°53'S 079°18'W	-2,88333	-79,3	Forest-remains. Tree to 8-10 m.
27800836	South America	Ecuador	Azuay		Páramo de Cajas, W of Cuenca. Along new road, c. 6-8 km W of pass.	2900 m	02°48'S 079°17'W	-2,8	-79,28333	Lowest specimen seen at c. 3800 m.
27800836	South America	Ecuador	Azuay		Páramo de Soldados SW of Cuenca.	3700 - 3800 m	02°53'S 079°17'W	-2,88333	-79,28333	
27800836	South America	Ecuador	Azuay		Páramo de Soldados SW of Cuenca.	3700 - 3800 m	02°53'S 079°17'W	-2,88333	-79,28333	
27800836	South America	Ecuador	Azuay		Páramo de Soldados SW of Cuenca.	3700 - 3800 m	02°53'S 079°17'W	-2,88333	-79,28333	
27800836	South America	Ecuador	Azuay		Páramo de Soldados SW of Cuenca.	3700 - 3800 m	02°53'S 079°17'W	-2,88333	-79,28333	
27800836	South America	Ecuador	Azuay		Páramo de Soldados SW of Cuenca.	3700 - 3800 m	02°53'S 079°17'W	-2,88333	-79,28333	
27800836	South America	Ecuador	Azuay		Páramo de las Cajas. W of pass.	3700 m	02°46'S 079°15'W	-2,76666	-79,25	
27800836	South America	Ecuador	Azuay		Between Cuenca and Soldados.	2800 - 3000 m	02°57'S 079°10'W	-2,95	-79,16666	Small tree.
27800836	South America	Ecuador	Azuay		At Soldados.	3200 - 3400 m	02°57'S 079°14'W	-2,95	-79,23333	
27800836	South America	Ecuador	Azuay		Paramo de Soldados.	3700 - 4000 m	02°53'S 079°18'W	-2,88333	-79,3	
27800836	South America	Ecuador	Azuay		Paramo de Soldados.	3700 - 4000 m	02°53'S 079°18'W	-2,88333	-79,3	
27800836	South America	Ecuador	Azuay		Paramo de Soldados.	3700 - 4000 m	02°53'S 079°18'W	-2,88333	-79,3	
27800836	South America	Ecuador	Azuay		Paramo de Soldados.	3700 - 4000 m	02°53'S 079°18'W	-2,88333	-79,3	Young plants.
27800836	South America	Ecuador	Azuay		Paramo de Soldados.	3700 - 4000 m	02°53'S 079°18'W	-2,88333	-79,3	Young plants.
27800836	South America	Ecuador	Azuay		Paramo de Soldados.	3700 - 4000 m	02°53'S 079°18'W	-2,88333	-79,3	
27800836	South America	Ecuador	Azuay		Paramo de Soldados.	3700 - 4000 m	02°53'S 079°18'W	-2,88333	-79,3	
27800836	South America	Ecuador	Azuay		Paramo de Soldados.	3700 - 4000 m	02°53'S 079°18'W	-2,88333	-79,3	Specimens from elfin-wood, app. 1-2 m high. Exposed area. C. 4000 m.
27800836	South America	Ecuador	Azuay		Paramo de Soldados.	3700 - 4000 m	02°53'S 079°18'W	-2,88333	-79,3	Specimens from elfin-wood, app. 1-2 m high. Exposed area. C. 4000 m.
27800836	South America	Ecuador	Azuay		Paramo de Soldados.	3700 - 4000 m	02°53'S 079°18'W	-2,88333	-79,3	Specimens from elfin-wood, app. 1-2 m high. Exposed area. C. 4000 m.
27800836	South America	Ecuador	Azuay		At bridge 2 km below Soldados. Scrub.	3200 m	02°56'S 078°13'W	-2,9333333	-78,2166667	Ca 5 m high tree.
27800836	South America	Ecuador	Azuay		Páramo de Soldados SW of Cuenca.	3700 - 3800 m	02°53'S 079°17'W	-2,88333	-79,28333	
27800836	South America	Ecuador	Azuay		Cuenca - Molleturo road ca 5 km W of pass in Las Cajas. Polylepis forest.	3350 m	02°49'S 079°16'W	-2,81666	-79,26666	Twigs from top-branches of an old tree, app. 8 m high, from a lower tree with flowers, and juvenile twigs from low shrub, somewhat shaded
27800836	South America	Ecuador	Azuay		Parque Nac. de Las Cajas, along road Soldados - Angas, in pass app. 13 km from Soldados. Grass-páramo, cushionplant-páramo, and páramo-swamp.	3900 - 4000 m	02°53'S 079°17'W	-2,88333	-79,28333	Very old tree in forest remain at 4000 m, juvenile twigs from small shrub below it
27800836	South America	Ecuador	Azuay		Paramo de Cajas. Páramo. Small grove.	3600 - 4150 m				"Tree to ca 5 m. Flowers green. ""quinoa negra"""
27800836	South America	Ecuador	Azuay		At bridge 2 km below Soldados. Scrub.	3200 m	02°56'S 078°13'W	-2,93333	-78,21666	Ca. 5 m high tree. Hybrid P. reticulata x weberbaueri.
27800836	South America	Ecuador	Azuay	Cuenca	Area Nacional de Recreación Cajas. Laguna Toreadora and Virgen Machay. Mostly Paramo with remnant Montane Wet Forest.	4000 - 4400 m	02°46'S 079°13'W	-2,76666	-79,21666	Tree, 2 m tall, in small forest patches. Bark exfoliating. Undersurface of leaves with white tomentose pubescence.
27800836	South America	Ecuador	Azuay	Cuenca	Parque Nacional El Cajas.  Laguna Toreador.	3500 m	02°53'S 079°08'W	-2,88333	-79,13333	Tree, 3 m tall. Common in small remnants of forest. Bark flaky and red. Inflorescence a pendent raceme.
27800836	South America	Ecuador	Azuay	Cuenca	Parque Nacional Cajas, km 32.1 desde redondel Cuenca-Molleturo. Sendero este alrededor de Laguna Toreadora. Páramo de pajonal.	3850 - 3870 m	"02°46'56""S 079°13'24""W - 02°46'46""S 079°13'18""W"	-2,7822223	-79,2233334	Arbol 8 m, folíolos 3 ó 5, verdes brillantes en la haz, densamente pubescentes en el envés. Al borde de la Laguna.
27800836	South America	Ecuador	Azuay	Cuenca	Parque Nacional Cajas, km 32.1 desde redondel Cuenca-Molleturo. Sendero este alrededor de Laguna Toreadora. Páramo de pajonal.	3850 - 3870 m	"02°46'56""S 079°13'24""W - 02°46'46""S 079°13'18""W"	-2,7822223	-79,2233334	Arbol 8 m, folíolos 7 ó 9, verde brillantes en la haz, densamente pubescentes en el envés.
27800836	South America	Ecuador	Azuay	Cuenca	Parque Nacional Cajas, km 28 redondel Cuenca-Molleturo. Sendero izquierdo Laguna Patoquinoas, páramo de pajonal y bosque de Polylepis.	3730 - 3800 m	"02°47'09""S 079°12'18""W - 02°46'58""S 079°12'43""W"	-2,7858333	-79,205	Arbol 10 m, tronco con corteza rojo-ladrillo descascarándose, folíolos blanco panosos en el envés.
27800836	South America	Ecuador	Azuay	Cuenca	Parque Nacional Cajas, km 35 Cuenca-Molleturo, Centro de Información, Laguna Toreadora sendero oeste.	3880 - 3890 m	"02°46'56""S 079°13'26""W - 02°46'43""S 079°13'33""W"	-2,7822223	-79,2238889	Arbol en bosque de Polylepis, 8 m, folíolos densamente gris panosos, 3-5 folíolos, flores verdes.
27800836	South America	Ecuador	Azuay		Carretera Cuenca-Sayausid-Area de Recreación Cajas. Colecciones en borde de carretero, bosque secundario, suelo humífero pedregoso.	3900 m				Árbol de 6 m, flores verdes.
26300337	South America	Ecuador	Azuay		Páramo de Soldados SW of Cuenca.	3700 - 3800 m	02°53'S 079°17'W	-2,88333	-79,28333	In shallow pond.
26300337	South America	Ecuador	Azuay		Parque Nacional Cajas. Páramo de Soldados. Road Baños-Soldados-Chaucha, km 34.4. Burnt and grazed grass páramo and cushion plants on wet areas along creek.	3700 m	"02°54'06""S 079°15'40""W"	-2,90166	-79,26111	Aquatic herb. Spikes dark green.
26300337	South America	Ecuador	Azuay	Cuenca	Parque Nacional Cajas, km 33 Cuenca-Molleturo, sendero alrededor de Laguna Cucheros Páramo de pajonal, suelo húmedo.	3820 - 3870 m	"02°47'33""S 079°12'09""W - 02°47'41""S 079°12'03""W"	-2,7925	-79,2025	Hierba acuática, hojas con tonos cafés. Brácteas verdes, estambres cremas, estigmas negros.
26300337	South America	Ecuador	Azuay		Parque Nac. de Las Cajas, app. 4 km E of highest point on Molleturo-road	3900 m	02°49'S 079°14'W	-2,81666	-79,23333	
26300337	South America	Ecuador	Azuay		Parque Nac. de Las Cajas, along road Soldados - Angas app. 8 km above Soldados. Small river.	3720 m	02°54'S 079°14'W	-2,9	-79,23333	Cross-section of stem elliptic, app. 1x2
26300337	South America	Ecuador	Azuay		Lagunas del Parque Nacional Cajas. Sector Toreadora	3810 m	"02°48'40""S 079°14'37""W"	-2,81111	-79,24361	Macrófita enraizada flotante, creciendo en zonas de mucha intervención. Se presenta dominante en el sector.
27800748	South America	Ecuador	Azuay		Páramo de Soldados, SW of Cuenca.	3750 - 3850 m	02°53'S 079°18'W	-2,88333	-79,3	
27800748	South America	Ecuador	Azuay	Cuenca	Parque Nacional Cajas, km 28 redondel Cuenca-Molleturo. Sendero Laguna Patoquinoas, páramo de pajonal y bosque de Polylepis.	3730 m	"02°47'09""S 079°12'18""W"	-2,7858333	-79,205	Hierba decumbente, corola amarilla opaca.
27800748	South America	Ecuador	Azuay	Cuenca	Parque Nacional Cajas, km 33 Cuenca-Molleturo, alrededor de la laguna Cucheros, páramo de pajonal, suelo húmedo.	3820 - 3870 m	"02°47'33""S 079°12'03""W - 02°47'41""S 079°12'09""W"	-2,7925	-79,2008333	Hierba acaulescente, pubescente 3-foliolada, generalmente bajo pajonales. Flores amarillas.
4302804	South America	Ecuador	Azuay	Cuenca	Parque Nacional Cajas, km 28 redondel Cuenca-Molleturo. Sendero Laguna Patoquinoas, páramo de pajonal y bosque de Polylepis.	3730 m	"02°47'09""S 079°12'18""W"	-2,7858333	-79,205	Hierba con roseta basal de hojas coriáceas, márgenes con dientes espinosos negros, escapo 1 m, brácteas densamente blanco pubescentes, corola azul-verdosa.
27100571	South America	Ecuador	Azuay		Shrub near the river on the road from Cuenca to Cajas. Mountain forest.	3100 m	02°49'S 078°08'W	-2,81666	-78,13333	Herb, up to 5 cm tall. Petals light yellow.
27100571	South America	Ecuador	Azuay		Parque Nacional Cajas. Páramo de Soldados. Road Cuenca-San Joaquín-Soldados.  Above Soldados, off road within the Park, km 51.7. Burnt and regenerated páramo.	3680 - 3870 m	"02°53'01""S 079°18'31""W - 02°53'34""S 079°18'36""W"	-2,88361	-79,30861	Aquatic. Leaves floating, flowers yellowish.
27100571	South America	Ecuador	Azuay	Cuenca	Parque Nacional Cajas, km 32.1 desde redondel Cuenca-Molleturo. Sendero este alrededor de Laguna Toreadora. Páramo de pajonal.	3850 - 3870 m	"02°46'56""S 079°13'24""W - 02°46'46""S 079°13'18""W"	-2,7822223	-79,2233334	Hierba acuática flotante, flores amarillo verdosas, frutos verdes con morado.
27101034	South America	Ecuador	Azuay		Laguna Toreadora, Las Cajas. Semihumid paramo dominated by grass tussocks and cushion plants, mainly of the families Asteraceae, Apiaceae and Valerianaceae. Scattered shrubs and Puyas. Soil temp.: 8° C.	3900 m	02°43'S 079°12'W	-2,71666	-79,2	Growing in almost dry creeks. Petals yellow.
27101034	South America	Ecuador	Azuay		Torococha - Mazan Valley, Area Nacional de Recreación Cajas.	3500 m	02°53'S 079°10'W	-2,88333	-79,16666	
27101034	South America	Ecuador	Azuay	Cuenca	Area Nacional de Recreación Cajas. Laguna Toreadora and Virgen Machay. Mostly Paramo with remnant Montane Wet Forest.	4000 - 4400 m	02°46'S 079°13'W	-2,76666	-79,21666	Terrestrial herb growing near edge of lake. Petals yellow.
27101034	South America	Ecuador	Azuay		Parque Nacional Cajas. Road Cuenca-Sayausí-Molleturo, km 38.4. From the pass to the top of ridge north of pass. Páramo vegetation.	4110 - 4350 m	"02°46'38""S 079°14'09""W - 02°46'09""S 079°14'39""W"	-2,77722	-79,23583	Herb. Corolla and stamens bright yellow.
27101034	South America	Ecuador	Azuay		Las Cajas. Road from the refugio to Migüir, about 6 km from the refugio. Small patches of Polylepis forest and surrounding paramo.	3900-4000 m	02°40'S 079°15'W	-2,66666	-79,25	Flowers yellow.
27101034	South America	Ecuador	Azuay		Páramos El Cajas west of Sayausí and Cuenca. Bunchgrass-páramo, Plantago rigida bog and small lakes.	4100 m	02°50'S 079°12'W	-2,83333	-79,2	
27101034	South America	Ecuador	Azuay		San Joaquín - Soldados - Angas, km 36.8 - 37.6. Grass páramo with a few shrubs and swamp area along river Yanuncay.	3590-3600 m	02°56'S 079°16'W	-2,93333	-79,26666	Herb to 0.3 m. Flowers yellow.
27101034	South America	Ecuador	Azuay		"Páramo de Cajas, laguna Toreadora, matorral de Gynoxys; turbera"	3440 m	"02°48'09""S 079°13'06""W"	-2,8025	-79,21833	
27101034	South America	Ecuador	Azuay		Paramos, in vicinity of Toreador, between Molleturo and Quinoas.	3810-3930 m	"02°47'00""S 079°19'48""W"	-2,7833	-79,33	
29100299	South America	Ecuador	Azuay		Paramo de Soldados, at highest point of road W of Soldados. Bunch grass and cushion paramo, paramo scrub and Polylepis forest.	3700 - 4000 m	02°57'S 079°18'W	-2,95	-79,3	Low shrub. Flowers orange and red.
29100299	South America	Ecuador	Azuay		Around Laguna Toreadora in Parque Nacional de Cajas, c. 35 km WNW of Cuenca. Polylepis forest and grass paramo.	3950 m	02°46'S 079°13'W	-2,76666	-79,21666	Shrub, ca 1 m tall. Flowers reddish.
29100299	South America	Ecuador	Azuay	Cuenca	Area Nacional de Recreación Cajas. Laguna Toreadora. Mostly paramo with remnant Montane Wet Forest.	3800 m	02°48'S 079°08'W	-2,8	-79,13333	Shrub, 40 cm taqll. Flowers orange and red.
29100299	South America	Ecuador	Azuay	Cuenca	Carretera Cuenca-Sayausí-Area Nacional de Recreación Cajas. Bosque muy húmedo Sub-alpino.	3150 - 3500 m	02°50'S 079°15'W	-2,83333	-79,25	Hierba de 40 cm de altura. Flores tubulares, anaranjadas.
29100299	South America	Ecuador	Azuay		Páramos, in vicinity of Toreador, between Molleturo and Quinoas.	3810 - 3930 m	"02°47'00""S 079°19'48""W"	-2,7833	-79,33	
29100299	South America	Ecuador	Azuay		Parque Nacional Cajas. Road Cuenca-Sayausí-Molleturo, km 38.4. From the pass to the top of ridge north of pass. Páramo vegetation.	4110 - 4350 m	"02°46'38""S 079°14'09""W - 02°46'09""S 079°14'39""W"	-2,77722	-79,23583	Shrub 0.4 m. Flower orange-red. Young fruits green, turning orange.
29100299	South America	Ecuador	Azuay		Parque Nacional Cajas. Páramo de Soldados. Road Baños-Soldados-Chaucha, km 34.4. Burnt and grazed grass páramo and cushion plants on wet areas along creek.	3700 m	"02°54'06""S 079°15'40""W"	-2,90166	-79,26111	Shrub 0.6 m. Corolla orange-red. Fruits green turning red.
29100299	South America	Ecuador	Azuay		Cajas. Parque Nacional Cajas, Road Cuenca-Sayausí-Molleturo km 36. Trail to Paragüillas, at the pass. Grass páramo, disturbed, up to rocky and sandy ridge. Specimens preserved in 70% alcohol before drying.	4100 - 4440 m	"02°46'19""S 079°14'37""W - 02°45'35""S 079°14'46""W"	-2,77194	-79,24361	Shrub, 0.5 m, flowers coral-red, young fruits green and coral-red.
29100299	South America	Ecuador	Azuay	Cuenca	Parque Nacional Cajas, km 32.1 desde redondel Cuenca-Molleturo. Sendero este alrededor de Laguna Toreadora. Páramo de pajonal.	3850 - 3870 m	"02°46'56""S 079°13'24""W - 02°46'46""S 079°13'18""W"	-2,7822223	-79,2233334	Arbusto 60 cm, flores rojo-rosadas por fuera anaranjadas por dentro.
29100299	South America	Ecuador	Azuay	Cuenca	Parque Nacional Cajas, km 28 redondel Cuenca-Molleturo. Sendero Laguna Patoquinoas, páramo de pajonal y bosque de Polylepis.	3730 m	"02°47'09""S 079°12'18""W"	-2,7858333	-79,205	Arbusto 1 m, flores rojo-coral por fuera, anaranjado-amarillo por dentro frutos jóvenes verdes.
29100299	South America	Ecuador	Azuay		Las Cajas. Small isolated patches with Polylepis forest near Laguna Toreadora. Soil temp. 8º C.	3900 m	02°43'S 079°12'W	-2,71666	-79,2	Small shrub ca. 0.5 m tall. Flowers red.
29100299	South America	Ecuador	Azuay		Páramo de las Cajas W of Cuenca.	4000-4150 m	02°47'S 079°14'W	-2,78333	-79,23333	1 m high shrub. Flowers pale red.
29100299	South America	Ecuador	Azuay		Parque Nacional de Cajas. Páramo in the pass.	4090-4150 m	00°47'S 079°14'W	-0,78333	-79,23333	Shrub 1.5 m high.
27800796	South America	Ecuador	Azuay		Cuenca - Molleturo road ca 5 km W of pass in Las Cajas. Polylepis forest.	3700 - 3800 m	02°49'S 079°16'W	-2,81666	-79,26666	In forest
27800796	South America	Ecuador	Azuay		Cuenca, about 25 km on the road to Cajas. Paramo.	3169 - 3500 m	02°48'S 079°08'W	-2,8	-79,13333	Herb, until 50 cm long, creeping. Petals red violet.
27800796	South America	Ecuador	Azuay		Parque Nacional Cajas. Road Cuena-Sayausí-Molleturo, km 28.9. Around Laguna Patoquinoa, páramo vegetation with scattered Polylepis trees.	3700 - 3870 m	"02°46'56""S 079°12'14""W - 02°47'11""S 079°12'26""W"	-2,78222	-79,20388	Creeping herb. Flowers dark pink.
27800796	South America	Ecuador	Azuay	Cuenca	Parque Nacional Cajas, km 28 redondel Cuenca-Molleturo. Sendero Laguna Patoquinoas, páramo de pajonal y bosque de Polylepis.	3730 m	"02°47'09""S 079°12'18""W"	-2,7858333	-79,205	Hierba rastrera, tallos café-rojizos, pétalos rosado oscuros.
9902187	South America	Ecuador	Azuay	Cuenca	Parque Nacional Cajas, Cuenca-Molleturo km 28, sendero Patoquinoas-Totoras. Bosque de Polylepis y pajonales.	3730 - 3800 m	"02°47'09""S 079°12'18""W - 02°40'58""S 079°12'43""W"	-2,7858333	-79,205	Hierba en lagunas, 2 m, flores pajizas.
2743430	South America	Ecuador	Azuay		Parque Nacional Cajas. Road Cuenca-Sayausí-Molleturo, km 38.4. From the pass to the top of ridge north of pass. Páramo vegetation.	4110 - 4350 m	"02°46'38""S 079°14'09""W - 02°46'09""S 079°14'39""W"	-2,77722	-79,23583	Herb. Heads nodding, yellow with green at base. Older leaves with purple veins below and purple midveins above.
2743430	South America	Ecuador	Azuay	Cuenca	"Parque Nacional Cajas, km 35.7 redondel Cuenca-Molleturo, en el paso, sendero Paragüillas; Páramo de pajonal hacia peñasco rocoso."	4100 - 4180 m	"02°46'39""S 079°14'30""W - 02°46'10""S 079°14'41""W"	-2,7775	-79,2416666	Hierba terrestre 0.5 m, capítulos nutantes amarillo-limón.
2743430	South America	Ecuador	Azuay		Area de Recreación Las Cajas, just W of pass on Cuenca-Molleturo road.	4100 m	02°45'S 079°20'W	-2,75	-79,33333	Heads yellow.
2743430	South America	Ecuador	Azuay		Parque Nacional Cajas, Laguna Toreadora.	3950 m	"02°46'59""S 079°13'26""W"	-2,783	-79,2239167	Cabizuelas amarillo-limón, nutantes.
16600587	South America	Ecuador	Azuay	Cuenca	Parque Nacional Cajas, km 28 redondel Cuenca-Molleturo. Sendero Laguna Patoquinoas, páramo de pajonal y bosque de Polylepis.	3730 m	"02°47'09""S 079°12'18""W"	-2,7858333	-79,205	Hierba, hojas y escapo con tonos café-rojizos, flores amarillas, frutos verde-morados.
16600587	South America	Ecuador	Azuay	Cuenca	Parque Nacional Cajas, km 35.7 redondel Cuenca-Molleturo, en el paso, sendero Paraqüillas ca. 1.5 km hacia Cerro Amarillo. Páramo con almohadillas de Plantago rigida, Chuquiraga jussieu y Loricaria.	4180 - 4260 m	"02°46'10""S 079°14'41""W - 02°45'52""S 079°14'46""W"	-2,7694445	-79,2447222	Hierba 0.3 m, tallos y brácteas verdes con tintes morados, pétalos amarillos con líneas moradas, frutos negro-morados.
16600587	South America	Ecuador	Azuay	Cuenca	Parque Nacional Cajas, km 33 Cuenca-Molleturo, alrededor de la laguna Cucheros, páramo de pajonal, suelo húmedo.	3820 - 3870 m	"02°47'33""S 079°12'03""W - 02°47'41""S 079°12'09""W"	-2,7925	-79,2008333	Hierba fasciculada 0.5 m frutos y semillas negros.
17601420	South America	Ecuador	Azuay	Cuenca	Parque Nacional Cajas, km 32.1 desde redondel Cuenca-Molleturo. Bosque de Polylepis abajo de la casa de información, Laguna La Toreadora.	3880 m	"02°46'56""S 079°13'26""W"	-2,7822223	-79,2238889	"Hierba rastrera entre almohadillas; corola lila con diseños más oscuros, labio y lobulado."
12300488	South America	Ecuador	Azuay		Parque Nacional Cajas. Road Cuenca-Sayausí-Molleturo, km 38.4. From the pass to the top of ridge north of pass. Páramo vegetation.	4110 - 4350 m	"02°46'38""S 079°14'09""W - 02°46'09""S 079°14'39""W"	-2,77722	-79,23583	Creeping herb on rocky soil. Flower buds white with pink. Flowers white.
12300488	South America	Ecuador	Azuay		Parque Nacional Cajas. Road Cuenca-Sayausí-Molleturo, km 38.4. From the pass to the top of ridge north of pass. Páramo vegetation.	4110 - 4350 m	"02°46'38""S 079°14'09""W - 02°46'09""S 079°14'39""W"	-2,7772223	-79,2358333	Shrub 0.4 m. Fruits purplish black.
12300488	South America	Ecuador	Azuay	Cuenca	Parque Nacional Cajas, km 28 redondel Cuenca-Molleturo. Sendero izquierdo Laguna Patoquinoas, páramo de pajonal y bosque de Polylepis.	3730 - 3800 m	"02°47'09""S 079°12'18""W - 02°46'58""S 079°12'43""W"	-2,7858333	-79,205	Arbusto rastrero, flores urceoladas, rosado pálidas a oscuras, frutos inmaduros verdes con tintes rojizos.
12300488	South America	Ecuador	Azuay	Cuenca	Parque Nacional Cajas, km 35 Cuenca-Molleturo, Centro de Información, Laguna Toreadora sendero oeste.	3880 - 3890 m	"02°46'56""S 079°13'26""W - 02°46'43""S 079°13'33""W"	-2,7822223	-79,2238889	"Arbusto 0.5 m, corola urceolada, blanca con rosado-pálido; frutos verdes tornándose morados."
12300488	South America	Ecuador	Azuay	Cuenca	Vía San Joaquín-Soldados-Chaucha, km 40.2, (12.8 km desde Soldados). Parque Nacional Cajas, páramo de pajonal.	3950 - 4090 m	"02°54'28""S 079°17'01""W - 02°54'18""S 079°17'18""W"	-2,9077778	-79,2836111	Arbusto rastrero en rocas. Corola urceolada rosado oscura. Frutos morados.
33500749	South America	Ecuador	Azuay		Las Cajas: Laguna Patoquineas. Along mule track in small Polylepis forest. Soil temp.: 8.5° C.	3790 m	02°43'S 079°12'W	-2,71666	-79,2	Subshrub 0.5 - 1 m. tall. Flowers pink.
33500749	South America	Ecuador	Azuay		Around Laguna Toreadora in Parque Nacional de Cajas, c. 35 km WNW of Cuenca. Polylepis forest and grass paramo.	3950 m	02°46'S 079°13'W	-2,76666	-79,21666	Ascending subshrub, ca 50 cm tall. Calyx purple. Corolla white, suffused with violet.
33500749	South America	Ecuador	Azuay		Las Cajas. Small isolated patches with Polylepis forest near Laguna Toreadora. Soil temp.: 8° C.	3900 m	02°43'S 079°12'W	-2,71666	-79,2	Growing in shelter from the wind. Main shoots creeping on the ground, secondary shoots upright. Corolla white and pink.
33500749	South America	Ecuador	Azuay	Cuenca	Parque Nacional Cajas, km 28 redondel Cuenca-Molleturo. Sendero izquierdo Laguna Patoquinoas, páramo de pajonal y bosque de Polylepis.	3730 - 3800 m	"02°47'09""S 079°12'18""W - 02°46'58""S 079°12'43""W"	-2,7858333	-79,205	Hierba laxa, 0.6 m, corola blanca con tintes lila-rosados.
33500749	South America	Ecuador	Azuay	Cuenca	"Parque Nacional Cajas, km 28 Cuenca-Molleturo. Laguna Patoquinoas, camino ""Garcia Moreno"" hasta Laguna Apicocha. Páramo de pajonal y bosque de Polylepis."	3730 - 3800 m	"02°47'09""S 079°12'18""W - 02°46'58""S 079°12'43""W"	-2,7858333	-79,205	Subarbusto 0.7 m, cáliz morado. Corola blanca, o blanca con tintes lilas a morados. Todas las flores de solo lado. Dentro de bosque de Polylepis.
33500711	South America	Ecuador	Azuay		Cajas. Parque Nacional Cajas, Road Cuenca-Sayausí-Molleturo km 36. Trail to Paragüillas, at the pass. Grass páramo, disturbed, up to rocky and sandy ridge. Specimens preserved in 70% alcohol before drying.	4100 - 4440 m	"02°46'19""S 079°14'37""W - 02°45'35""S 079°14'46""W"	-2,77194	-79,24361	Rosette-forming herb, growing in sand at ridge. Leaves green at base with dark pink-violet at base, turning brownish on exposed parts, fleshy. Flowers growing at center, cream-white flushed with pink.
33500711	South America	Ecuador	Azuay	Cuenca	Parque Nacional Cajas, km 35.7 redondel Cuenca-Molleturo, en el paso, sendero Paraqüillas ca. 1.5 km hacia Cerro Amarillo. Páramo con almohadillas de Plantago rigida, Chuquiraga jussieu y Loricaria.	4180 - 4260 m	"02°46'10""S 079°14'41""W - 02°45'52""S 079°14'46""W"	-2,7694445	-79,2447222	Hierba acaulescente en roseta redonda, hojas carnosas moradas en la base, verde grisáceas y recurvadas en el ápice, flores cremas.
33500229	South America	Ecuador	Azuay		Road Cuenca - Soldados. Roadsides and rocky areas.	3000 - 3300 m	02°57'S 079°12'W	-2,95	-79,2	1 m tall shrub. Flowers pinkish white.
33500229	South America	Ecuador	Azuay		From Soldados eastwards along the road until Hda. San Vicente (west of Cuenca). Patches of Polylepis-forest and hedges along road.	3200 - 3300 m	02°56'S 079°10'W	-2,93333	-79,16666	2 m high shrub.
33500229	South America	Ecuador	Azuay		Parque Nacional de Cajas, WNW of Cuenca. Humid depression in grass paramo.	3950 m	02°51'S 079°12'W	-2,85	-79,2	Flowers rose-red.
33500229	South America	Ecuador	Azuay		Las Cajas: Laguna Patoquineas. Along mule track in small Polylepis forest. Soil temp.: 8.5° C.	3790 m	02°43'S 079°12'W	-2,71666	-79,2	Shrub 1-2 m tall, semiscandent. Flowers white to pink.
33500229	South America	Ecuador	Azuay		Las Cajas: Laguna Patoquineas. Along mule track in small Polylepis forest. Soil temp.: 8.5° C.	3790 m	02°43'S 079°12'W	-2,71666	-79,2	Shrub approximately 0.5 m. tall. Flowers white to pink.
33500229	South America	Ecuador	Azuay		Laguna Toreadora, Las Cajas. Semihumid paramo dominated by grass tussocks and cushion plants, mainly of the families Asteraceae, Apiaceae and Valerianaceae. Scattered shrubs and Puyas. Soil temp.: 8° C.	3900 m	02°43'S 079°12'W	-2,71666	-79,2	Upright shoots from horizontal rootstock.
33500229	South America	Ecuador	Azuay		Las Cajas: Laguna Patoquineas. Along mule track in small Polylepis forest. Soil temp.: 8.5° C.	3790 m	02°43'S 079°12'W	-2,71666	-79,2	Shrub approximately 0.5 m. tall. Flowers white to pink.
33500229	South America	Ecuador	Azuay		Las Cajas. Small isolated patches with Polylepis forest near Laguna Toreadora. Soil temp.: 8° C.	3900 m	02°43'S 079°12'W	-2,71666	-79,2	
33500229	South America	Ecuador	Azuay		Las Cajas. Small isolated patches with Polylepis forest near Laguna Toreadora. Soil temp.: 8° C.	3900 m	02°43'S 079°12'W	-2,71666	-79,2	May be showing a connection between No. 45069 and No. 45070.
33500229	South America	Ecuador	Azuay		Las Cajas. Small isolated patches with Polylepis forest near Laguna Toreadora. Soil temp.: 8° C.	3900 m	02°43'S 079°12'W	-2,71666	-79,2	Showing generations of branching
33500229	South America	Ecuador	Azuay		Páramo de las Cajas W of Cuenca.	4000 - 4150 m	02°47'S 079°14'W	-2,78333	-79,23333	0.5 m high.
33500229	South America	Ecuador	Azuay		Cuenca, about 25 km on the road to Cajas. Paramo.	3500 m	02°48'S 079°08'W	-2,8	-79,13333	Herb, until 50 cm tall. Woody stalk. Petals white. Anthers yellow.
33500229	South America	Ecuador	Azuay		Parque Nacional de Cajas, WNW of Cuenca. Humid depression in grass paramo.	3950 m	02°51'S 079°12'W	-2,85	-79,2	Flowers white.
33500229	South America	Ecuador	Azuay	Cuenca	Area Nacional de Recreación Cajas. Laguna Toreadora. Mostly paramo with remnant Montane Wet Forest.	3800 m	02°48'S 079°08'W	-2,8	-79,13333	Herb, 60 cm tall. Flowers white.
33500229	South America	Ecuador	Azuay	Cuenca	Area Nacional de Recreación Cajas. Laguna Toreadora. Mostly Paramo with remnant Montane Wet Forest.	3800 m	02°46'S 079°13'W	-2,76666	-79,21666	Shrub, 2 m tall. Flowers white.
33500229	South America	Ecuador	Azuay	Cuenca	Area Nacional de Recreación Cajas. Collections made between La Laguna Llaviucu via dirt road to main highway to Cuenca. Mostly Paramo with remnant patches of Montane Wet Forest.	3100 - 3200 m	02°53'S 079°08'W	-2,88333	-79,13333	Shrub, 50 cm tall on edge of lake. Corolla mostly purple, sometimes with white margins.
33500229	South America	Ecuador	Azuay	Cuenca	Area Nacional de Recreación Cajas. Laguna Toreadora and Virgen Machay. Mostly Paramo with remnant Montane Wet Forest.	4000 - 4400 m	02°46'S 079°13'W	-2,76666	-79,21666	Shrub, 1.5 m tall. Calyx purple. Corolla white.
33500229	South America	Ecuador	Azuay	Cuenca	Carretera Cuenca-Sayausí-Area Nacional de Recreación Cajas. Bosque muy húmedo Sub-alpino.	3150 - 3500 m	02°50'S 079°15'W	-2,83333	-79,25	Hierba de 1 m de altura. Inflorescencias blancas.
33500229	South America	Ecuador	Azuay		Parque Nacional Cajas. Road Cuenca-Sayausí-Molleturo, beyond the pass. Km 47.8. Páramo vegetation.	3720 m	"02°47'56""S 079°18'17""W"	-2,79888	-79,30472	Shrub 0.6 m. Petals white tinged with lilac, sepals green-brown.
33500229	South America	Ecuador	Azuay		Parque Nacional Cajas. Road Cuenca-Sayausí-Molleturo. At the pass, km 38.4. Grass páramo vegetation.	4110 - 4230 m	"02°46'38""S 079°14'27""W"	-2,77722	-79,24083	Herb 0.3 m. Flowers violet.
33500229	South America	Ecuador	Azuay		Parque Nacional Cajas. Páramo de Soldados. Road Baños-Soldados-Chaucha, km 34.4. Burnt and grazed grass páramo and cushion plants on wet areas along creek.	3700 m	"02°54'06""S 079°15'40""W"	-2,90166	-79,26111	Shrub 0.5 m. Corolla white flushed with light purple.
33500229	South America	Ecuador	Azuay	Cuenca	Parque Nacional Cajas, km 32.1 desde redondel Cuenca-Molleturo. Bosque de Polylepis abajo de la casa de información, Laguna La Toreadora.	3880 m	"02°46'56""S 079°13'26""W"	-2,7822223	-79,2238889	Arbusto decumbente, flores blancas con tintes lilas.
33500229	South America	Ecuador	Azuay	Cuenca	Parque Nacional Cajas km 37 (abajo de Tres Cruces) Cuenca-Molleturo. Sendero a laguna y cima enfrente de antena. Páramo de pajonal y cerro rocoso.	4020 - 4190 m	"02°46'40""S 079°14'49""W - 02°47'00""S 079°15'10""W"	-2,7777778	-79,2469444	Hierba 0.3 m, con olor característico. Hojas con márgenes morados. Cálize con tintes lilas. Aquenios cafés, papus blanco con tintes lilas.
33500229	South America	Ecuador	Azuay		Soldados, app. 20 W. of Cuenca.	3500 m	02°55'S 079°14'W	-2,91666	-79,23333	
33500229	South America	Ecuador	Azuay		Parque Nacional de Cajas, east of pass. Polylepis incana and P. weberbauerii forest, with Berberis, Monnina, and Gynoxis. Polylepis trunks with mosses and lichens.	3780 m	02°42'S 079°16'W	-2,7	-79,26666	Shrub 0.4 cm high.
33500229	South America	Ecuador	Azuay		Parque Nacional de Cajas, east of pass. Polylepis incana and P. weberbauerii forest, with Berberis, Monnina, and Gynoxis. Polylepis trunks with mosses and lichens.	3780 m	02°42'S 079°16'W	-2,7	-79,26666	Shrub 0.6 m high. Petals pink. Growing in road gravel.
33500229	South America	Ecuador	Azuay		Parque Nacional de Cajas, east of pass. Polylepis incana and P. weberbauerii forest, with Berberis, Monnina, and Gynoxis. Polylepis trunks with mosses and lichens.	3780 m	02°42'S 079°16'W	-2,7	-79,26666	Shrub 0.6 m high. Petals white. In closed forest.
33500229	South America	Ecuador	Azuay		Cuencas-Las Cajas Recreational Area road, 28 km W of Cuenca. Paramo.	3662 m	02°49'S 079°06'W	-2,81666	-79,1	Shrublet, wiry, to 1m tall. Flowers white
33500229	South America	Ecuador	Azuay		Páramos, in vicinity of Toreador, between Molleturo and Quinoas.	3810-3930 m	"02°47'00""S 079°19'48""W"	-2,7833	-79,33	"Suffruticose; corolla lavender."
33500246	South America	Ecuador	Azuay		Las Cajas. Small isolated patches with Polylepis forest near Laguna Toreadora. Soil temp.: 8° C.	3900 m	02°43'S 079°12'W	-2,71666	-79,2	
33500246	South America	Ecuador	Azuay		Páramo de las Cajas. In the pass.	4000 - 4200 m	02°46'S 079°14'W	-2,76666	-79,23333	4200 m.
33500246	South America	Ecuador	Azuay	Cuenca	Area Nacional de Recreación Cajas. Laguna Toreadora. Mostly paramo with remnant Montane Wet Forest.	3800 m	02°48'S 079°08'W	-2,8	-79,13333	Herb, 35 cm tall. Flower white.
33500246	South America	Ecuador	Azuay		Parque Nacional Cajas. Road Cuenca-Sayausí-Molleturo, km 38.4. From the pass to the top of ridge north of pass. Páramo vegetation.	4110 - 4350 m	"02°46'38""S 079°14'09""W - 02°46'09""S 079°14'39""W"	-2,77722	-79,23583	Herb with basal rosette of leaves. Heads purple and white towards center.
33500246	South America	Ecuador	Azuay	Cuenca	Parque Nacional Cajas, km 32.1 desde redondel Cuenca-Molleturo. Bosque de Polylepis abajo de la casa de información, Laguna La Toreadora.	3880 m	"02°46'56""S 079°13'26""W"	-2,7822223	-79,2238889	Hierba con roseta basal de hojas, 1 m de alto, flores blancas con tintes lilas.
33500386	South America	Ecuador	Azuay		Laguna Toreadora, Las Cajas. Semihumid paramo dominated by grass tussocks and cushion plants, mainly of the families Asteraceae, Apiaceae and Valerianaceae. Scattered shrubs and Puyas. Soil temp.: 8° C.	3900 m	02°43'S 079°12'W	-2,71666	-79,2	Some plants with branched stems forming 1 - 20 shoots in dense cushions. Lower parts densely covered by old leaf bases. Two types of white flowers: Big male flowers, anthers exserted. Small female flowers, anthers included.
33500386	South America	Ecuador	Azuay		Páramo de las Cajas. In the pass.	4000 - 4200 m	02°46'S 079°14'W	-2,76666	-79,23333	
33500386	South America	Ecuador	Azuay	Cuenca	Area Nacional de Recreación Cajas. Laguna Toreadora. Mostly Paramo with remnant Montane Wet Forest.	3800 m	02°46'S 079°13'W	-2,76666	-79,21666	Leaves in a basal rosette. Flowers white.
33500386	South America	Ecuador	Azuay		Parque Nacional Cajas. Road Cuenca-Sayausí-Molleturo. At the pass, km 38.4. Grass páramo vegetation.	4110 - 4230 m	"02°46'38""S 079°14'27""W"	-2,77722	-79,24083	Rosette herb. Flowers white.
33500386	South America	Ecuador	Azuay		Cajas. Parque Nacional Cajas, Road Cuenca-Sayausí-Molleturo km 36. Trail to Paragüillas, at the pass. Grass páramo, disturbed, up to rocky and sandy ridge. Specimens preserved in 70% alcohol before drying.	4100 - 4440 m	"02°46'19""S 079°14'37""W - 02°45'35""S 079°14'46""W"	-2,77194	-79,24361	Acaulescent, rosette-forming herb. Flowers cream-white.
33500386	South America	Ecuador	Azuay	Cuenca	Parque Nacional Cajas, km 28 redondel Cuenca-Molleturo. Sendero Laguna Patoquinoas, páramo de pajonal y bosque de Polylepis.	3730 m	"02°47'09""S 079°12'18""W"	-2,7858333	-79,205	Hierba acaulescente, flores blancas, hojas coriáceas, ápice punzante.
33500386	South America	Ecuador	Azuay		Páramos El Cajas west of Sayausí and Cuenca. Bunchgrass-páramo, Plantago rigida bog and small lakes.	4100 m	02°50'S 079°12'W	-2,83333	-79,2	
33500758	South America	Ecuador	Azuay		"Paramo de Las Cajas, Lagunas Suerococha, 35 km on Cuenca-Molleturo road; mountain 1 km NW of pass."	4200 - 4400 m	02°48'S 079°14'W	-2,8	-79,2333333	Corolla purplish.
33500758	South America	Ecuador	Azuay	Cuenca	"Parque Nacional Cajas, km 35.7 redondel Cuenca-Molleturo, en el paso, sendero Paragüillas; Páramo de pajonal hacia peñasco rocoso."	4100 - 4180 m	"02°46'39""S 079°14'30""W - 02°46'10""S 079°14'41""W"	-2,7775	-79,2416666	Hierba con roseta basal de hojas, escapo 10-20 cm, inflorescencia nutante, morada, flores blancas con tintes lila.
33800244	South America	Ecuador	Azuay		Paramo de Las Cajas, Lagunas Suerococha, 35 km on Cuenca-Molleturo road mountain 1 km NW of pass.	4200 - 4400 m	02°48'S 079°14'W	-2,8	-79,2333333	Forming loose cushions in moist situations. Petals white with violet veins, the lower petal yellow at base. Capsules lemon yellow.
33800244	South America	Ecuador	Azuay		Laguna Toreadora, Las Cajas. Semihumid paramo dominated by grass tussocks and cushion plants, mainly of the families Asteraceae, Apiaceae and Valerianaceae. Scattered shrubs and Puyas. Soil temp.: 8° C.	3900 m	02°43'S 079°12'W	-2,71666	-79,2	In depressions with running water. Flower white with lilac rays and yellow center.
33800244	South America	Ecuador	Azuay	Cuenca	Area Nacional de Recreación Cajas. Collections made between La Laguna Llaviucu via dirt road to main highway to Cuenca. Mostly Paramo with remnant patches of Montane Wet Forest.	3100 - 3200 m	02°53'S 079°08'W	-2,88333	-79,13333	Terrestrial low herb. Upper 3 petals white with blue throat. Lower 2 petal white with vertial blue lines and yellow throat.
33800244	South America	Ecuador	Azuay	Cuenca	Area Nacional de Recreación Cajas. Laguna Toreadora and Virgen Machay. Mostly Paramo with remnant Montane Wet Forest.	4000 - 4400 m	02°46'S 079°13'W	-2,76666	-79,21666	"Terrestrial, cushion-forming herb. Upper four corolla lobes violet blue on outside and mostly white with blue at base on insede. Lower two corolla lobes fused; white with blue lines and yellow on inside base."
33800244	South America	Ecuador	Azuay		Parque Nacional Cajas. Road Cuenca-Sayausí-Molleturo. At the pass, km 38.4. Grass páramo vegetation.	4110 - 4230 m	"02°46'38""S 079°14'27""W"	-2,7772223	-79,2408333	Cushion-forming herb. Corolla white, center purple with a yellow spot.
33800244	South America	Ecuador	Azuay		Parque Nacional Cajas. Páramo de Soldados. Road Baños-Soldados-Chaucha, km 34.4. Burnt and grazed grass páramo and cushion plants on wet areas along creek.	3700 m	"02°54'06""S 079°15'40""W"	-2,90166	-79,26111	Rosette-forming herb. Corolla white flushed with purple on nerves, yellow center.
33800244	South America	Ecuador	Azuay	Cuenca	Parque Nacional Cajas, km 32.1 desde redondel Cuenca-Molleturo. Sendero este alrededor de Laguna Toreadora. Páramo de pajonal.	3850 - 3870 m	"02°46'56""S 079°13'24""W - 02°46'46""S 079°13'18""W"	-2,7822223	-79,2233334	Hierba en almohadilla. Pétalos blancos con centro morado y amarillo.
33800244	South America	Ecuador	Azuay	Cuenca	Parque Nacional Cajas, km 28 redondel Cuenca-Molleturo. Sendero izquierdo Laguna Patoquinoas, páramo de pajonal y bosque de Polylepis.	3730 - 3800 m	"02°47'09""S 079°12'18""W - 02°46'58""S 079°12'43""W"	-2,7858333	-79,205	Hierba con roseta basal de hojas, formando almohadillas. Flores amarillo-crema, base de los pétalos verde, labio con amarillo en el centro.
33800244	South America	Ecuador	Azuay	Cuenca	"Parque Nacional Cajas, km 35.7 redondel Cuenca-Molleturo, en el paso, sendero Paragüillas; Páramo de pajonal hacia peñasco rocoso."	4100 - 4180 m	"02°46'39""S 079°14'30""W - 02°46'10""S 079°14'41""W"	-2,7775	-79,2416666	Hierba acaulescente formando almohadillas pequeñas, corola blanca con líneas moradas, pétalo grande con amarillo en el centro.
33800244	South America	Ecuador	Azuay	Cuenca	Parque Nacional Cajas, km 35.7 Cuenca-Molleturo. Sendero Tres Cruces. Laguna Negra-Laguna Larga. Páramo de pajonal.	4100 - 3970 m	"02°46'39""S 079°14'30""W - 02°46'54""S 079°14'32""W"	-2,7775	-79,2416666	Hierba formando almohadillas. Flores blancas con tintes lilas hacia el centro. Pétalo bilobado con centro amarillo y rayas moradas.
33800244	South America	Ecuador	Azuay		Parque Nacional Cajas, Laguna Toreadora.	3950 m	"02°46'59""S 079°13'26""W"	-2,783	-79,2239167	Corola blanca con tintes morados, centro amarillo.
2711495	South America	Ecuador	Azuay		Laguna Toreadora, Las Cajas. Semihumid paramo dominated by grass tussocks and cushion plants, mainly of the families Asteraceae, Apiaceae and Valerianaceae. Scattered shrubs and Puyas. Soil temp.: 8° C.	3900 m	02°43'S 079°12'W	-2,71666	-79,2	Forming loose coverings on moist soil. Ray flowers white, disc flowers yellow.
2711495	South America	Ecuador	Azuay		Cuenca, about 25 km on the road to Cajas. Paramo.	3500 m	02°48'S 079°08'W	-2,8	-79,13333	Herb, until 15 cm tall. Ray flowers white. Disc flowers yellow.
2711495	South America	Ecuador	Azuay	Cuenca	Area Nacional de Recreación Cajas. Laguna Toreadora. Mostly paramo with remnant Montane Wet Forest.	3800 m	02°48'S 079°08'W	-2,8	-79,13333	Low growing herb. Flowers white.
2711495	South America	Ecuador	Azuay	Cuenca	Parque Nacional Cajas, km 28 redondel Cuenca-Molleturo. Sendero Laguna Patoquinoas, páramo de pajonal y bosque de Polylepis.	3730 m	"02°47'09""S 079°12'18""W"	-2,7858333	-79,205	Hierba con roseta basal de hojas, flósculos del radio blancos con tintes lilas, los del disco amarillos.
2711495	South America	Ecuador	Azuay	Cuenca	Area Nacional de Recreación Cajas. Collection made along Río Patul from the Comunidad Baute/Lagnua Patul (watershed of Río Patul). Paramo with small patches of montane forest.	3500-4200 m	02°33'S 079°21'W	-2,55	-79,35	Terrestrial. Ray flowers white.
2711495	South America	Ecuador	Azuay		Road Soldados - Angas ca km 8 (west of Cuenca). Boggy depression in bunchgrass páramo.	3850 m	02°56'S 079°18'W	-2,93333	-79,3	
2709070	South America	Ecuador	Azuay	Cuenca	"Parque Nacional Cajas, km 35.7 redondel Cuenca-Molleturo, en el paso, sendero Paragüillas; Páramo de pajonal hacia peñasco rocoso."	4100 - 4180 m	"02°46'39""S 079°14'30""W - 02°46'10""S 079°14'41""W"	-2,7775	-79,2416666	Hierba acaulescente, brácteas rojo moradas, flósculos amarillos (todos).
2709070	South America	Ecuador	Azuay	Cuenca	Parque Nacional Cajas, km 33 Cuenca-Molleturo, alrededor de la laguna Cucheros, páramo de pajonal, suelo húmedo.	3820 - 3870 m	"02°47'33""S 079°12'03""W - 02°47'41""S 079°12'09""W"	-2,7925	-79,2008333	Hierbas arrosetadas, lígulas blancas, flósculos centrales amarillos, en áreas pantanosas.
2723559	South America	Ecuador	Azuay		Laguna Toreadora, Las Cajas. Semihumid paramo dominated by grass tussocks and cushion plants, mainly of the families Asteraceae, Apiaceae and Valerianaceae. Scattered shrubs and Puyas. Soil temp.: 8° C.	3900 m	02°43'S 079°12'W	-2,71666	-79,2	White rayflowers and yellow discflowers.
2723559	South America	Ecuador	Azuay		Páramos, in vicinity of Toreador, between Molleturo and Quinoas	3810-3930 m				In moist mossy boggy places bordering alpine lake.
2723559	South America	Ecuador	Azuay		Páramos El Cajas west of Sayausí and Cuenca. Bunchgrass-páramo, Plantago rigida bog and small lakes.	4100 m	02°50'S 079°12'W	-2,83333	-79,2	
2723559	South America	Ecuador	Azuay	Cuenca	Parque Nacional Cajas, km 35.7 Cuenca-Molleturo. Sendero Tres Cruces. Laguna Negra-Laguna Larga. Páramo de pajonal.	4100 - 3970 m	"02°46'39""S 079°14'30""W - 02°46'54""S 079°14'32""W"	-2,7775	-79,2416666	Hierba acaulescente creciendo entre almohadillas en áreas húmedas. Brácteas verdes con márgenes morado-rojizos. Lígulas blancas, flósculos amarillos.
50101822	South America	Ecuador	Azuay		Parque Nacional Cajas. Road Cuenca-Sayausí-Molleturo, km 38.4. From the pass to the top of ridge north of pass. Páramo vegetation.	4110 - 4350 m	"02°46'38""S 079°14'09""W - 02°46'09""S 079°14'39""W"	-2,77722	-79,23583	Herb cushion-forming. Corolla of ray florets white. Disk florets brown.
50101822	South America	Ecuador	Azuay	Cuenca	Parque Nacional Cajas, Cuenca-Molleturo km 28, sendero Patoquinoas-Totoras. Bosque de Polylepis y pajonales.	3730 - 3800 m	"02°47'09""S 079°12'18""W - 02°40'58""S 079°12'43""W"	-2,7858333	-79,205	Planta en almohadillas. Lígulas blancas, flósculos centrales amarillos.
50101826	South America	Ecuador	Azuay		Páramos El Cajas west of Sayausí and Cuenca. Bunchgrass-páramo, Plantago rigida bog and small lakes.	4100 m	02°50'S 079°12'W	-2,83333	-79,2	Flowers pinkish - violet.
50101826	South America	Ecuador	Azuay		Parque Nacional Cajas. Páramo de Soldados. Road Cuenca-San Joaquín-Soldados.  At the pass above Soldados.  Burnt and regenerated páramo.	3890 - 4200 m	"02°54'04""S 079°17'13""W"	-2,90111	-79,28694	Cushion-forming herb. Ray florets dark pink, disk florets yellow.
50101826	South America	Ecuador	Azuay	Cuenca	"Parque Nacional Cajas, km 35.7 redondel Cuenca-Molleturo, en el paso, sendero Paragüillas; Páramo de pajonal hacia peñasco rocoso."	4100 - 4180 m	"02°46'39""S 079°14'30""W - 02°46'10""S 079°14'41""W"	-2,7775	-79,2416666	Hierba acaulescente formando almohadillas, flósculos del radio ligulados lila-rosados, los del disco amarillos.
